name,address,lat,lng,comment,website
1,"48.884322, 2.338833",48.884322,2.338833,Paris 18ème (PA_1???) https://live.staticflickr.com/7310/9320288932_5e3215f8f6_m.jpg,https://www.flickr.com/photos/24406544@N00/9320288932
3,"48.848836, 2.348550",48.848836,2.348550,Paris 5ème (PA_003) https://live.staticflickr.com/509/31499626961_e4f7e06bf6_m.jpg,https://www.flickr.com/photos/24406544@N00/31499626961
4,"48.847122, 2.351102",48.847122,2.351102,Paris 5ème (PA_004) https://live.staticflickr.com/5744/21870220309_1dfff8775c_m.jpg,https://www.flickr.com/photos/24406544@N00/21870220309
7,"48.854102, 2.381769",48.854102,2.381769,Rue Godefroy Cavaignac (PA_7??) https://live.staticflickr.com/165/416257273_d8e6df3350_m.jpg,https://www.flickr.com/photos/24406544@N00/416257273
8,"48.853770, 2.373985",48.853770,2.373985,Paris 11ème (PA_8??) https://live.staticflickr.com/1083/4729098835_1f1f8d8243_m.jpg,https://www.flickr.com/photos/24406544@N00/4729098835
10,"48.842572, 2.386144",48.842572,2.386144,Paris 12ème (PA_10??) https://live.staticflickr.com/3710/9502527674_1c26cf406f_m.jpg,https://www.flickr.com/photos/24406544@N00/9502527674
13,"48.847434, 2.375503",48.847434,2.375503,Paris 12ème (PA_013) https://live.staticflickr.com/3019/2634236139_38aebdaae6_m.jpg,https://www.flickr.com/photos/24406544@N00/2634236139
14,"48.848802, 2.372780",48.848802,2.372780,Paris 12ème (PA_014) https://live.staticflickr.com/8398/29078477644_daa56b5f11_m.jpg,https://www.flickr.com/photos/24406544@N00/29078477644
15,"48.848127, 2.380833",48.848127,2.380833,Paris 12ème (PA_015) https://live.staticflickr.com/8842/28333272606_f6e40448d9_m.jpg,https://www.flickr.com/photos/24406544@N00/28333272606
16,"48.849480, 2.374341",48.849480,2.374341,Paris 12ème (PA_016) https://live.staticflickr.com/7590/28321621185_00262c7bd9_m.jpg,https://www.flickr.com/photos/24406544@N00/28321621185
18,"48.888508, 2.341343",48.888508,2.341343,Rue Saint Vincent (PA_018) https://live.staticflickr.com/2029/2530841981_d1a71aac03_m.jpg,https://www.flickr.com/photos/24406544@N00/2530841981
19,"48.873254, 2.364066",48.873254,2.364066,Pont de la Grange aux Belles (PA_19) https://live.staticflickr.com/7887/33155308718_d8e2f85da5_m.jpg,https://www.flickr.com/photos/24406544@N00/33155308718
21,"48.870283, 2.345570",48.870283,2.345570,Paris 2ème (PA_21) https://live.staticflickr.com/4884/45652179622_6066bf5a15_m.jpg,https://www.flickr.com/photos/24406544@N00/45652179622
24,"48.833452, 2.354443",48.833452,2.354443,Avenue des Gobelins (PA_024) https://live.staticflickr.com/1251/972918589_43324c72f2_m.jpg,https://www.flickr.com/photos/24406544@N00/972918589
25,"48.864658, 2.363326",48.864658,2.363326,Paris 3ème (PA_25) https://live.staticflickr.com/4891/45818214744_c7499eacf5_m.jpg,https://www.flickr.com/photos/24406544@N00/45818214744
27,"48.861189, 2.357972",48.861189,2.357972,Paris 3ème (PA_27) https://live.staticflickr.com/7821/46577380321_80d3448743_m.jpg,https://www.flickr.com/photos/24406544@N00/46577380321
29,"48.862625, 2.359861",48.862625,2.359861,Paris 3ème (PA_29) https://live.staticflickr.com/4846/45964287442_0b3264aceb_m.jpg,https://www.flickr.com/photos/24406544@N00/45964287442
30,"48.861022, 2.350527",48.861022,2.350527,Paris 4ème (PA_030) https://live.staticflickr.com/7587/17011999502_fb57562640_m.jpg,https://www.flickr.com/photos/24406544@N00/17011999502
35,"48.857112, 2.361652",48.857112,2.361652,Paris 4ème (PA_35) https://live.staticflickr.com/65535/48570102437_65069841ae_m.jpg,https://www.flickr.com/photos/24406544@N00/48570102437
39,"48.848359, 2.346611",48.848359,2.346611,Paris 5ème (PA_39) https://live.staticflickr.com/7864/46608338254_bb46437d9a_m.jpg,https://www.flickr.com/photos/24406544@N00/46608338254
40,"48.847069, 2.348166",48.847069,2.348166,Rue de la Montagne Ste-Geneviève (PA_040) https://live.staticflickr.com/133/356128560_08ce5e186b_m.jpg,https://www.flickr.com/photos/24406544@N00/356128560
44,"48.853625, 2.338467",48.853625,2.338467,Rue de l'Ancienne Comédi (PA_044) https://live.staticflickr.com/48/143435559_3a377e836f_m.jpg,https://www.flickr.com/photos/24406544@N00/143435559
46,"48.852270, 2.339100",48.852270,2.339100,Paris 6ème (PA_46) https://live.staticflickr.com/4849/45340012794_fd95e150cb_m.jpg,https://www.flickr.com/photos/24406544@N00/45340012794
47,"48.851605, 2.377916",48.851605,2.377916,Paris 11ème (PA_47) https://live.staticflickr.com/1755/42530282081_a993a63ec4_m.jpg,https://www.flickr.com/photos/24406544@N00/42530282081
48,"48.855884, 2.369248",48.855884,2.369248,Paris 11ème (PA_48) https://live.staticflickr.com/4857/44479610220_48461e1aa1_m.jpg,https://www.flickr.com/photos/24406544@N00/44479610220
51,"48.852884, 2.374387",48.852884,2.374387,Paris 11ème (PA_51) https://live.staticflickr.com/65535/47582902652_00c8d62a37_m.jpg,https://www.flickr.com/photos/24406544@N00/47582902652
55,"48.827830, 2.352844",48.827830,2.352844,Rue du Moulin des Près (PA_055) https://live.staticflickr.com/8595/28248059206_3783122103_m.jpg,https://www.flickr.com/photos/24406544@N00/28248059206
56,"48.828770, 2.351557",48.828770,2.351557,Paris 13ème (PA_056) https://live.staticflickr.com/3217/2741442757_b396135135_m.jpg,https://www.flickr.com/photos/24406544@N00/2741442757
61,"48.866355, 2.347258",48.866355,2.347258,Paris 2ème (PA_061) https://live.staticflickr.com/8541/29035035970_9dc2252b8f_m.jpg,https://www.flickr.com/photos/24406544@N00/29035035970
62,"48.867469, 2.346325",48.867469,2.346325,Paris 2ème (PA_062) https://live.staticflickr.com/7721/28664763613_a2da6972d8_m.jpg,https://www.flickr.com/photos/24406544@N00/28664763613
64,"48.864707, 2.297204",48.864707,2.297204,Paris 16ème (PA_64) https://live.staticflickr.com/4834/45480738305_cf2701f68a_m.jpg,https://www.flickr.com/photos/24406544@N00/45480738305
65,"48.853166, 2.373905",48.853166,2.373905,Paris 11ème (PA_65) https://live.staticflickr.com/4871/45564162245_ce5067da2b_m.jpg,https://www.flickr.com/photos/24406544@N00/45564162245
66,"48.885638, 2.338077",48.885638,2.338077,Paris 18ème (PA_066) https://live.staticflickr.com/4162/34297628180_50f91229b2_m.jpg,https://www.flickr.com/photos/24406544@N00/34297628180
67,"48.885638, 2.338075",48.885638,2.338075,Paris 18ème (PA_067) https://live.staticflickr.com/4163/34552116741_89298bd17f_m.jpg,https://www.flickr.com/photos/24406544@N00/34552116741
71,"48.854813, 2.359030",48.854813,2.359030,Paris 4ème (PA_071) https://live.staticflickr.com/2882/33911332736_0cf4f48dbd_m.jpg,https://www.flickr.com/photos/24406544@N00/33911332736
72,"48.861611, 2.367547",48.861611,2.367547,Paris 11ème (PA_072) https://live.staticflickr.com/7773/29747668095_b4c24a02dd_m.jpg,https://www.flickr.com/photos/24406544@N00/29747668095
74,"48.860232, 2.362017",48.860232,2.362017,Rue des Coutures St-Gervais (PA_074) https://live.staticflickr.com/185/419857500_d0f1acce60_m.jpg,https://www.flickr.com/photos/24406544@N00/419857500
75,"48.834370, 2.332438",48.834370,2.332438,Paris 14ème (PA_075) https://live.staticflickr.com/1932/43260734560_4910d44ff5_m.jpg,https://www.flickr.com/photos/24406544@N00/43260734560
76,"48.838346, 2.357060",48.838346,2.357060,Paris 13ème (PA_076) https://live.staticflickr.com/65535/49555863336_848f64615f_m.jpg,https://www.flickr.com/photos/24406544@N00/49555863336
78,"48.828963, 2.352905",48.828963,2.352905,Paris 13ème (PA_078) https://live.staticflickr.com/7271/28106541092_ab8c0e0cc0_m.jpg,https://www.flickr.com/photos/24406544@N00/28106541092
79,"48.827877, 2.351455",48.827877,2.351455,Paris 13ème (PA_079) https://live.staticflickr.com/2892/34093068282_736a6aab01_m.jpg,https://www.flickr.com/photos/24406544@N00/34093068282
80,"48.881663, 2.330766",48.881663,2.330766,Paris 9ème (PA_080) https://live.staticflickr.com/5569/31470259165_e558f4a89b_m.jpg,https://www.flickr.com/photos/24406544@N00/31470259165
81,"48.864883, 2.377927",48.864883,2.377927,Paris 11ème (PA_081) https://live.staticflickr.com/8422/29170219821_1af7da0d99_m.jpg,https://www.flickr.com/photos/24406544@N00/29170219821
82,"48.846897, 2.408533",48.846897,2.408533,Paris 12ème (PA_82) https://live.staticflickr.com/4906/44223937120_ec9e403849_m.jpg,https://www.flickr.com/photos/24406544@N00/44223937120
85,"48.853216, 2.378110",48.853216,2.378110,Paris 11ème (PA_85) https://live.staticflickr.com/7888/45794356074_8220ef4144_m.jpg,https://www.flickr.com/photos/24406544@N00/45794356074
89,"48.862618, 2.346364",48.862618,2.346364,Paris 1èr (PA_089) https://live.staticflickr.com/65535/48728399493_23cebd9b28_m.jpg,https://www.flickr.com/photos/24406544@N00/48728399493
90,"48.863736, 2.348972",48.863736,2.348972,Paris 1èr (PA_90) https://live.staticflickr.com/4858/31469894147_95629ffb6b_m.jpg,https://www.flickr.com/photos/24406544@N00/31469894147
91,"48.853244, 2.376340",48.853244,2.376340,Paris 11ème (PA_91) https://live.staticflickr.com/65535/49830342071_3c90d45272_m.jpg,https://www.flickr.com/photos/24406544@N00/49830342071
94,"48.847109, 2.332438",48.847109,2.332438,Paris 6ème (PA_094) https://live.staticflickr.com/65535/48608327671_2e5d9b61a6_m.jpg,https://www.flickr.com/photos/24406544@N00/48608327671
97,"48.839391, 2.389183",48.839391,2.389183,Paris 12ème (PA_97) https://live.staticflickr.com/65535/49102223887_0594273885_m.jpg,https://www.flickr.com/photos/24406544@N00/49102223887
98,"48.853258, 2.343521",48.853258,2.343521,Paris 6ème (PA_098) https://live.staticflickr.com/1916/44138032585_72fe267279_m.jpg,https://www.flickr.com/photos/24406544@N00/44138032585
99,"48.853195, 2.343746",48.853195,2.343746,Paris 6ème (PA_099) https://live.staticflickr.com/1902/30104502147_bb7caca018_m.jpg,https://www.flickr.com/photos/24406544@N00/30104502147
100,"48.872380, 2.364061",48.872380,2.364061,Quai de Valmy (PA_100) https://live.staticflickr.com/8724/16609259370_1ea9092398_m.jpg,https://www.flickr.com/photos/24406544@N00/16609259370
102,"48.840030, 2.362077",48.840030,2.362077,Paris 13ème (PA_102) https://live.staticflickr.com/8051/29414710001_ba137f8ffd_m.jpg,https://www.flickr.com/photos/24406544@N00/29414710001
104,"48.853470, 2.414363",48.853470,2.414363,Porte de Montreuil (PA_104) https://live.staticflickr.com/65535/49280486143_926b3257e2_m.jpg,https://www.flickr.com/photos/24406544@N00/49280486143
105,"48.867533, 2.363800",48.867533,2.363800,Place de la République (PA_105) https://live.staticflickr.com/1933/44640977425_f64be31a50_m.jpg,https://www.flickr.com/photos/24406544@N00/44640977425
107,"48.859491, 2.293031",48.859491,2.293031,Quai Branly (PA_107) https://live.staticflickr.com/65535/48834128966_c607c86653_m.jpg,https://www.flickr.com/photos/24406544@N00/48834128966
108,"48.859414, 2.293385",48.859414,2.293385,Quai Branly (PA_108) https://live.staticflickr.com/1235/726917642_c39b3bf1c3_m.jpg,https://www.flickr.com/photos/24406544@N00/726917642
110,"48.862788, 2.351347",48.862788,2.351347,Paris 3ème (PA_110) https://live.staticflickr.com/7338/27742155722_8850c9e176_m.jpg,https://www.flickr.com/photos/24406544@N00/27742155722
111,"48.891611, 2.344605",48.891611,2.344605,Paris 18ème (PA_111) https://live.staticflickr.com/1823/42700790364_c6d80dcc5b_m.jpg,https://www.flickr.com/photos/24406544@N00/42700790364
116,"48.854748, 2.372682",48.854748,2.372682,Paris 11ème (PA_116) https://live.staticflickr.com/4838/45777507514_cff93d89f5_m.jpg,https://www.flickr.com/photos/24406544@N00/45777507514
119,"48.859809, 2.403484",48.859809,2.403484,Paris 20ème (PA_119) https://live.staticflickr.com/4731/25302033378_ee8ee0511f_m.jpg,https://www.flickr.com/photos/24406544@N00/25302033378
120,"48.869463, 2.367227",48.869463,2.367227,Paris 10ème (PA_120) https://live.staticflickr.com/7382/27910741516_61e71b0bdf_m.jpg,https://www.flickr.com/photos/24406544@N00/27910741516
123,"48.838773, 2.375503",48.838773,2.375503,Paris 12ème (PA_123) https://live.staticflickr.com/65535/50238451732_c3163d83cd_m.jpg,https://www.flickr.com/photos/24406544@N00/50238451732
125,"48.839589, 2.395759",48.839589,2.395759,Place Félix Eboué (PA_125) https://live.staticflickr.com/136/359326588_bf5886f049_m.jpg,https://www.flickr.com/photos/24406544@N00/359326588
126,"48.859449, 2.292516",48.859449,2.292516,Pont d'Iéna (PA_126) https://live.staticflickr.com/65535/48685118307_613fdf4a9e_m.jpg,https://www.flickr.com/photos/24406544@N00/48685118307
128,"48.852030, 2.373690",48.852030,2.373690,Paris 11ème (PA_128) https://live.staticflickr.com/1966/44535787905_c94b1d6b44_m.jpg,https://www.flickr.com/photos/24406544@N00/44535787905
132,"48.856250, 2.405500",48.856250,2.405500,Paris 20ème (PA_132) https://live.staticflickr.com/8461/29329870966_472bafc821_m.jpg,https://www.flickr.com/photos/24406544@N00/29329870966
135,"48.860536, 2.333521",48.860536,2.333521,Paris 1èr (PA_135) https://live.staticflickr.com/65535/49248840941_f64e88364b_m.jpg,https://www.flickr.com/photos/24406544@N00/49248840941
144,"48.860091, 2.350795",48.860091,2.350795,Paris 4ème (PA_144) https://live.staticflickr.com/7143/6847196455_c452dbba3d_m.jpg,https://www.flickr.com/photos/24406544@N00/6847196455
146,"48.834247, 2.355494",48.834247,2.355494,Rue Véronèse (PA_146) https://live.staticflickr.com/3055/3029514578_5590dec82a_m.jpg,https://www.flickr.com/photos/24406544@N00/3029514578
147,"48.842905, 2.365847",48.842905,2.365847,Gare d'Austerlitz (PA_147) https://live.staticflickr.com/3191/2936019424_e20260a63b_m.jpg,https://www.flickr.com/photos/24406544@N00/2936019424
148,"48.855679, 2.350623",48.855679,2.350623,Space Invaders (PA_148 Ghost) https://live.staticflickr.com/4098/5602735340_9c71e828cc_m.jpg,https://www.flickr.com/photos/57661287@N02/5602735340
149,"48.854688, 2.362952",48.854688,2.362952,Paris 4ème (PA_149) https://live.staticflickr.com/974/41858553032_8c98931f10_m.jpg,https://www.flickr.com/photos/24406544@N00/41858553032
154,"48.841722, 2.400938",48.841722,2.400938,Paris 12ème (PA_154) https://live.staticflickr.com/8199/29391578645_54b9983ecf_m.jpg,https://www.flickr.com/photos/24406544@N00/29391578645
156,"48.859908, 2.354303",48.859908,2.354303,Rue Simon Le Franc (PA_156) https://live.staticflickr.com/217/500022963_2594bbfe6c_m.jpg,https://www.flickr.com/photos/24406544@N00/500022963
158,"48.860613, 2.363844",48.860613,2.363844,Paris 3ème (PA_158) https://live.staticflickr.com/4218/35455567240_865d96db1b_m.jpg,https://www.flickr.com/photos/24406544@N00/35455567240
159,"48.876097, 2.350988",48.876097,2.350988,Paris 10ème (PA_159) https://live.staticflickr.com/1894/44748526132_af17a2464f_m.jpg,https://www.flickr.com/photos/24406544@N00/44748526132
160,"48.885369, 2.340597",48.885369,2.340597,Rue A. Barsacq (PA_160) https://live.staticflickr.com/37/107104418_104eecc489_m.jpg,https://www.flickr.com/photos/24406544@N00/107104418
162,"48.884613, 2.370569",48.884613,2.370569,Paris 19ème (PA_162) https://live.staticflickr.com/8250/28975829444_7f6b6954b6_m.jpg,https://www.flickr.com/photos/24406544@N00/28975829444
165,"48.887677, 2.340686",48.887677,2.340686,Rue Cortot (PA_165) https://live.staticflickr.com/94/227993196_45d0862314_m.jpg,https://www.flickr.com/photos/24406544@N00/227993196
167,"48.865411, 2.336716",48.865411,2.336716,Rue Molière (PA_167) https://live.staticflickr.com/1976/45007419314_545bdf255a_m.jpg,https://www.flickr.com/photos/24406544@N00/45007419314
168,"48.865519, 2.336686",48.865519,2.336686,Paris 1er (PA_168) https://live.staticflickr.com/3092/2610904795_2bc0c1bf67_m.jpg,https://www.flickr.com/photos/24406544@N00/2610904795
170,"48.886077, 2.341268",48.886077,2.341268,Rue Saint-Éleuthère (PA_170) https://live.staticflickr.com/65535/50167775892_4f4bac1078_m.jpg,https://www.flickr.com/photos/24406544@N00/50167775892
171,"48.885463, 2.343177",48.885463,2.343177,Square Louise-Michel (PA_171) https://live.staticflickr.com/65535/50162868728_32ac9ace14_m.jpg,https://www.flickr.com/photos/24406544@N00/50162868728
172,"48.891200, 2.331869",48.891200,2.331869,Paris 18ème (PA_172) https://live.staticflickr.com/926/42486216625_5d375c9f0e_m.jpg,https://www.flickr.com/photos/24406544@N00/42486216625
174,"48.841583, 2.282302",48.841583,2.282302,Paris 15ème (PA_174) https://live.staticflickr.com/65535/50180886132_88b00e47d3_m.jpg,https://www.flickr.com/photos/24406544@N00/50180886132
176,"48.849025, 2.330916",48.849025,2.330916,Paris 6ème (PA_176) https://live.staticflickr.com/8300/28641757693_b2bc4594ed_m.jpg,https://www.flickr.com/photos/24406544@N00/28641757693
178,"48.874694, 2.305936",48.874694,2.305936,Paris 8ème (PA_178) https://live.staticflickr.com/7773/29406951242_a4801cd5b3_m.jpg,https://www.flickr.com/photos/24406544@N00/29406951242
182,"48.850974, 2.331912",48.850974,2.331912,Rue Madame (PA_182) https://live.staticflickr.com/3386/3446302971_42fe9cf84c_m.jpg,https://www.flickr.com/photos/24406544@N00/3446302971
183,"48.850338, 2.331880",48.850338,2.331880,Paris 5ème (PA_183) https://live.staticflickr.com/7282/16820847395_7dc8b72d1e_m.jpg,https://www.flickr.com/photos/24406544@N00/16820847395
188,"48.857684, 2.360622",48.857684,2.360622,Rue des Francs Bourgeois (PA_188) https://live.staticflickr.com/110/292378275_31307408c3_m.jpg,https://www.flickr.com/photos/24406544@N00/292378275
190,"48.860225, 2.403733",48.860225,2.403733,Paris 20ème (PA_190) https://live.staticflickr.com/902/41156351662_8bb172524d_m.jpg,https://www.flickr.com/photos/24406544@N00/41156351662
194,"48.860084, 2.377295",48.860084,2.377295,Rue du Chemin Vert (PA_194) https://live.staticflickr.com/122/278877912_10ca93bc99_m.jpg,https://www.flickr.com/photos/24406544@N00/278877912
195,"48.900819, 2.344669",48.900819,2.344669,Paris 18ème (PA_195) https://live.staticflickr.com/7510/28455531981_7783029941_m.jpg,https://www.flickr.com/photos/24406544@N00/28455531981
196,"48.883784, 2.368927",48.883784,2.368927,Boulevard de la Villette (PA_196) https://live.staticflickr.com/65535/49186211043_27fe23c3af_m.jpg,https://www.flickr.com/photos/24406544@N00/49186211043
197,"48.886547, 2.332383",48.886547,2.332383,Paris 18ème (PA_197) https://live.staticflickr.com/5684/22118827296_5c27b3963a_m.jpg,https://www.flickr.com/photos/24406544@N00/22118827296
200,"48.844475, 2.372617",48.844475,2.372617,Gare de Lyon (PA_200) https://live.staticflickr.com/173/373168921_aa5212819d_m.jpg,https://www.flickr.com/photos/24406544@N00/373168921
202,"48.828469, 2.388356",48.828469,2.388356,Pont National (PA_202) https://live.staticflickr.com/65535/50210015536_4260f9f30a_m.jpg,https://www.flickr.com/photos/24406544@N00/50210015536
204,"48.889763, 2.396017",48.889763,2.396017,Paris 19ème (PA_204) https://live.staticflickr.com/65535/48808381057_4a37b882ec_m.jpg,https://www.flickr.com/photos/24406544@N00/48808381057
205,"48.878066, 2.351711",48.878066,2.351711,Paris 10ème (PA_205) https://live.staticflickr.com/3875/18839606135_36a39d2fce_m.jpg,https://www.flickr.com/photos/24406544@N00/18839606135
210,"48.885291, 2.359539",48.885291,2.359539,Rue Marx Dormoy (PA_210) https://live.staticflickr.com/65535/49460930278_88a749276b_m.jpg,https://www.flickr.com/photos/24406544@N00/49460930278
211,"48.852461, 2.371677",48.852461,2.371677,Rue du Faubourg Saint-Antoine (PA_211) https://live.staticflickr.com/1740/42502676632_5103d94b6c_m.jpg,https://www.flickr.com/photos/24406544@N00/42502676632
212,"48.857055, 2.393058",48.857055,2.393058,Paris 11ème (PA_212) https://live.staticflickr.com/885/40391776714_19752d573c_m.jpg,https://www.flickr.com/photos/24406544@N00/40391776714
216,"48.821699, 2.342416",48.821699,2.342416,Rue de l'Amiral Mouchez (PA_216) https://live.staticflickr.com/60/162874656_83d7341d12_m.jpg,https://www.flickr.com/photos/24406544@N00/162874656
219,"48.819538, 2.373508",48.819538,2.373508,Porte d'Ivry (PA_219) https://live.staticflickr.com/4523/24073474817_5c54958408_m.jpg,https://www.flickr.com/photos/24406544@N00/24073474817
222,"48.871116, 2.374433",48.871116,2.374433,Paris 11ème (PA_222) https://live.staticflickr.com/8424/29503711026_f5c70ae993_m.jpg,https://www.flickr.com/photos/24406544@N00/29503711026
223,"48.848263, 2.376093",48.848263,2.376093,Rue Abel (PA_223) https://live.staticflickr.com/179/368843373_1b1c2b20c0_m.jpg,https://www.flickr.com/photos/24406544@N00/368843373
227,"48.874277, 2.353016",48.874277,2.353016,Paris 10ème (PA_227) https://live.staticflickr.com/65535/49045188698_1dcdac684d_m.jpg,https://www.flickr.com/photos/24406544@N00/49045188698
233,"48.844472, 2.276315",48.844472,2.276315,Rue des Cévennes (PA_233) https://live.staticflickr.com/65535/50185841166_c3f754863b_m.jpg,https://www.flickr.com/photos/24406544@N00/50185841166
235,"48.863581, 2.364088",48.863581,2.364088,Rue de Normandie (PA_235) https://live.staticflickr.com/65535/50144629633_94907c5639_m.jpg,https://www.flickr.com/photos/24406544@N00/50144629633
237,"48.873515, 2.296925",48.873515,2.296925,Paris 8ème (PA_237) https://live.staticflickr.com/65535/48657085353_85cb9f0c2e_m.jpg,https://www.flickr.com/photos/24406544@N00/48657085353
238,"48.866076, 2.307429",48.866076,2.307429,Paris 8ème (PA_238) https://live.staticflickr.com/1952/45137253042_eea0491082_m.jpg,https://www.flickr.com/photos/24406544@N00/45137253042
242,"48.844560, 2.406724",48.844560,2.406724,Paris 12ème (PA_242) https://live.staticflickr.com/7049/6967970432_8d796722b9_m.jpg,https://www.flickr.com/photos/24406544@N00/6967970432
243,"48.846763, 2.375085",48.846763,2.375085,Paris 12ème (PA_243) https://live.staticflickr.com/3215/2926699344_9e7846e452_m.jpg,https://www.flickr.com/photos/24406544@N00/2926699344
250,"48.868808, 2.367339",48.868808,2.367339,Paris 10ème (PA_250) https://live.staticflickr.com/4656/28104808949_3cccbefed1_m.jpg,https://www.flickr.com/photos/24406544@N00/28104808949
251,"48.860748, 2.347952",48.860748,2.347952,Paris 1èr (PA_251) https://live.staticflickr.com/1935/44741740625_27ce7aa68c_m.jpg,https://www.flickr.com/photos/24406544@N00/44741740625
252,"48.872336, 2.376801",48.872336,2.376801,Métro Belleville (PA_252) https://live.staticflickr.com/4909/46029000424_d861718e60_m.jpg,https://www.flickr.com/photos/24406544@N00/46029000424
253,"48.864114, 2.301292",48.864114,2.301292,Paris 16ème (PA_253) https://live.staticflickr.com/4864/44564867620_e4b3f69e51_m.jpg,https://www.flickr.com/photos/24406544@N00/44564867620
254,"48.871859, 2.300552",48.871859,2.300552,Avenue des Champs-Elysées (PA_254) https://live.staticflickr.com/65535/50151762822_8f293f1fc2_m.jpg,https://www.flickr.com/photos/24406544@N00/50151762822
255,"48.861566, 2.291336",48.861566,2.291336,Paris 16ème (PA_255) https://live.staticflickr.com/7886/46763692624_22db0d701c_m.jpg,https://www.flickr.com/photos/24406544@N00/46763692624
257,"48.857790, 2.285660",48.857790,2.285660,Paris 16ème (PA_257) https://live.staticflickr.com/4851/46384647472_d94fd1971f_m.jpg,https://www.flickr.com/photos/24406544@N00/46384647472
260,"48.847412, 2.268429",48.847412,2.268429,Place d'Eglise d'Auteuil (PA_260) https://live.staticflickr.com/65535/48872050391_91bd87467c_m.jpg,https://www.flickr.com/photos/24406544@N00/48872050391
262,"48.848034, 2.397111",48.848034,2.397111,Paris 12ème (PA_262) https://live.staticflickr.com/7909/47467551282_07a74d8593_m.jpg,https://www.flickr.com/photos/24406544@N00/47467551282
263,"48.869831, 2.285917",48.869831,2.285917,Paris 16ème (PA_263) https://live.staticflickr.com/4838/46369418292_763a88be9c_m.jpg,https://www.flickr.com/photos/24406544@N00/46369418292
264,"48.862823, 2.275629",48.862823,2.275629,Rue de la Tour (PA_264) https://live.staticflickr.com/76/222775745_48167fed24_m.jpg,https://www.flickr.com/photos/24406544@N00/222775745
266,"48.864637, 2.295681",48.864637,2.295681,Paris 16ème (PA_266) https://live.staticflickr.com/65535/48389473081_20984143eb_m.jpg,https://www.flickr.com/photos/24406544@N00/48389473081
267,"48.864206, 2.290209",48.864206,2.290209,Paris 16ème (PA_267) https://live.staticflickr.com/7851/32532131767_9d9257727d_m.jpg,https://www.flickr.com/photos/24406544@N00/32532131767
270,"48.868194, 2.365288",48.868194,2.365288,Paris 10ème (PA_270) https://live.staticflickr.com/8081/28710925586_ea357a8fa5_m.jpg,https://www.flickr.com/photos/24406544@N00/28710925586
272,"48.826524, 2.361373",48.826524,2.361373,Rue de Tolbiac (PA_272) https://live.staticflickr.com/91/248402881_b3f613edc5_m.jpg,https://www.flickr.com/photos/24406544@N00/248402881
273,"48.860225, 2.350054",48.860225,2.350054,Rue Aubry le Boucher (PA_273) https://live.staticflickr.com/31/90675992_81efff41fd_m.jpg,https://www.flickr.com/photos/24406544@N00/90675992
277,"48.853300, 2.375900",48.853300,2.375900,Rue de Charonne (PA_277) https://live.staticflickr.com/2286/1871509550_1c697e154f_m.jpg,https://www.flickr.com/photos/24406544@N00/1871509550
278,"48.852863, 2.406555",48.852863,2.406555,Paris 20ème (PA_278) https://live.staticflickr.com/2850/34168762051_70ee1dbef2_m.jpg,https://www.flickr.com/photos/24406544@N00/34168762051
280,"48.863908, 2.386030",48.863908,2.386030,Paris 11ème (PA_280) https://live.staticflickr.com/7396/27006551554_6721bb8586_m.jpg,https://www.flickr.com/photos/24406544@N00/27006551554
282,"48.858188, 2.352233",48.858188,2.352233,Paris 4ème (PA_282) https://live.staticflickr.com/8781/29497820990_4daf1df3c0_m.jpg,https://www.flickr.com/photos/24406544@N00/29497820990
285,"48.866041, 2.345988",48.866041,2.345988,Rue Bachaumont / Passage Benaïad (PA_285) https://live.staticflickr.com/72/157815523_b8a55e7275_m.jpg,https://www.flickr.com/photos/24406544@N00/157815523
286,"48.887525, 2.344455",48.887525,2.344455,Paris 18ème (PA_286) https://live.staticflickr.com/770/31623329232_37839e11a1_m.jpg,https://www.flickr.com/photos/24406544@N00/31623329232
287,"48.856706, 2.356857",48.856706,2.356857,Paris 4ème (PA_287) https://live.staticflickr.com/65535/50212802643_4e36b72d1b_m.jpg,https://www.flickr.com/photos/24406544@N00/50212802643
290,"48.866316, 2.379677",48.866316,2.379677,Rue Oberkampf (PA_290) https://live.staticflickr.com/65535/48510424081_f290f97249_m.jpg,https://www.flickr.com/photos/24406544@N00/48510424081
291,"48.867904, 2.390137",48.867904,2.390137,Rue des Plâtrières (PA_291) https://live.staticflickr.com/4599/39215613011_053b187293_m.jpg,https://www.flickr.com/photos/24406544@N00/39215613011
294,"48.858199, 2.356009",48.858199,2.356009,Paris 4ème (PA_294) https://live.staticflickr.com/65535/48745329972_c82c1c8893_m.jpg,https://www.flickr.com/photos/24406544@N00/48745329972
295,"48.863645, 2.344636",48.863645,2.344636,Rue du Jour (PA_295) https://live.staticflickr.com/50/132669871_5733be7dd8_m.jpg,https://www.flickr.com/photos/24406544@N00/132669871
299,"48.834684, 2.367446",48.834684,2.367446,Paris 13ème (PA_299) https://live.staticflickr.com/65535/50243697257_cc5c6994be_m.jpg,https://www.flickr.com/photos/24406544@N00/50243697257
301,"48.850730, 2.372966",48.850730,2.372966,Paris 12ème (PA_301) https://live.staticflickr.com/7551/29715458605_2a151b83e8_m.jpg,https://www.flickr.com/photos/24406544@N00/29715458605
302,"48.879061, 2.389847",48.879061,2.389847,Paris 19ème (PA_302) https://live.staticflickr.com/5652/20771202138_647e2aa93e_m.jpg,https://www.flickr.com/photos/24406544@N00/20771202138
303,"48.826877, 2.350763",48.826877,2.350763,Passage Boiton (PA_303) https://live.staticflickr.com/65535/49512422441_4dcb360be9_m.jpg,https://www.flickr.com/photos/24406544@N00/49512422441
310,"48.837497, 2.255408",48.837497,2.255408,Paris 16ème (PA_310) https://live.staticflickr.com/8333/28573094734_a31739f0b4_m.jpg,https://www.flickr.com/photos/24406544@N00/28573094734
311,"48.843134, 2.330045",48.843134,2.330045,Paris 6ème (PA_311) https://live.staticflickr.com/7148/6548062515_c9cd2024ae_m.jpg,https://www.flickr.com/photos/24406544@N00/6548062515
315,"48.830097, 2.351152",48.830097,2.351152,Paris 13ème (PA_315) https://live.staticflickr.com/822/25956001317_7346f588fc_m.jpg,https://www.flickr.com/photos/24406544@N00/25956001317
320,"48.836588, 2.338092",48.836588,2.338092,Rue du Faubourg Saint-Jacques (PA_320) https://live.staticflickr.com/71/199414119_af02526e46_m.jpg,https://www.flickr.com/photos/24406544@N00/199414119
321,"48.846558, 2.341879",48.846558,2.341879,Paris 5ème (PA_321) https://live.staticflickr.com/7864/33455190688_a7aa91c1a6_m.jpg,https://www.flickr.com/photos/24406544@N00/33455190688
322,"48.848852, 2.332849",48.848852,2.332849,Paris 6ème (PA_322) https://live.staticflickr.com/1720/25703545070_af0f1c995f_m.jpg,https://www.flickr.com/photos/24406544@N00/25703545070
323,"48.854366, 2.384141",48.854366,2.384141,Paris 11ème (PA_323) https://live.staticflickr.com/8337/29534484666_2073b4c062_m.jpg,https://www.flickr.com/photos/24406544@N00/29534484666
326,"48.847822, 2.392895",48.847822,2.392895,Paris 12ème (PA_326) https://live.staticflickr.com/65535/48823145222_757619dbf4_m.jpg,https://www.flickr.com/photos/24406544@N00/48823145222
329,"48.886596, 2.361116",48.886596,2.361116,Paris 18ème (PA_329) https://live.staticflickr.com/4460/36968649964_8ab41d9aef_m.jpg,https://www.flickr.com/photos/24406544@N00/36968649964
330,"48.878468, 2.349228",48.878468,2.349228,Paris 10ème (PA_330) https://live.staticflickr.com/1893/30976121378_120071796a_m.jpg,https://www.flickr.com/photos/24406544@N00/30976121378
331,"48.859388, 2.353000",48.859388,2.353000,Paris 4ème (PA_331) https://live.staticflickr.com/2863/33133112974_34a80e78b8_m.jpg,https://www.flickr.com/photos/24406544@N00/33133112974
333,"48.880035, 2.344282",48.880035,2.344282,Paris 9ème (PA_333) https://live.staticflickr.com/65535/48721377626_b015f2f120_m.jpg,https://www.flickr.com/photos/24406544@N00/48721377626
334,"48.843836, 2.364184",48.843836,2.364184,Quai Saint Bernard (PA_334) https://live.staticflickr.com/43/93482972_e32b49fb20_m.jpg,https://www.flickr.com/photos/24406544@N00/93482972
335,"48.882052, 2.369999",48.882052,2.369999,Quai de Jemmapas (PA_335) https://live.staticflickr.com/61/200857601_70080b6df5_m.jpg,https://www.flickr.com/photos/24406544@N00/200857601
336,"48.890462, 2.353177",48.890462,2.353177,Rue Léon (PA_336) https://live.staticflickr.com/27/103269537_a1fbd447f6_m.jpg,https://www.flickr.com/photos/24406544@N00/103269537
337,"48.864545, 2.412775",48.864545,2.412775,Porte de Bagnolet (PA_337) https://live.staticflickr.com/65535/49531362008_863acfbe22_m.jpg,https://www.flickr.com/photos/24406544@N00/49531362008
340,"48.853540, 2.353649",48.853540,2.353649,Paris 4ème (PA_340) https://live.staticflickr.com/4885/44118449710_b38e896512_m.jpg,https://www.flickr.com/photos/24406544@N00/44118449710
342,"48.879077, 2.336961",48.879077,2.336961,Paris 9ème (PA_342) https://live.staticflickr.com/8705/29072213264_73589f8005_m.jpg,https://www.flickr.com/photos/24406544@N00/29072213264
NaN,"48.864192, 2.297011",48.864192,2.297011,Palais de Tokyo [outside] (PA_???) https://live.staticflickr.com/93/219054733_d2cb0bf88b_m.jpg,https://www.flickr.com/photos/24406544@N00/219054733
343,"48.860211, 2.291078",48.860211,2.291078,Paris 16ème (PA_343) https://live.staticflickr.com/7817/47448603392_b9d2848d00_m.jpg,https://www.flickr.com/photos/24406544@N00/47448603392
346,"48.842908, 2.312257",48.842908,2.312257,Rue de Vaugirard (PA_346) https://live.staticflickr.com/58/185722187_9e277c72d7_m.jpg,https://www.flickr.com/photos/24406544@N00/185722187
348,"48.861744, 2.361333",48.861744,2.361333,Paris 3ème (PA_348) https://live.staticflickr.com/2920/33175233023_f5d5d1c71e_m.jpg,https://www.flickr.com/photos/24406544@N00/33175233023
352,"48.877625, 2.358208",48.877625,2.358208,Rue d'Alsace (PA_352) https://live.staticflickr.com/78/205924492_d9a19a0054_m.jpg,https://www.flickr.com/photos/24406544@N00/205924492
353,"48.869458, 2.324819",48.869458,2.324819,Paris 8ème (PA_353) https://live.staticflickr.com/4652/40559164102_b0280811b6_m.jpg,https://www.flickr.com/photos/24406544@N00/40559164102
355,"48.862742, 2.349743",48.862742,2.349743,Rue de la Grande Truanderie (PA_355) https://live.staticflickr.com/89/249903581_e15dfc3782_m.jpg,https://www.flickr.com/photos/24406544@N00/249903581
357,"48.832139, 2.290177",48.832139,2.290177,Boulevard Lefebvre (PA_357) https://live.staticflickr.com/74/194072318_b6e2813946_m.jpg,https://www.flickr.com/photos/24406544@N00/194072318
362,"48.871711, 2.364772",48.871711,2.364772,Paris 10ème (PA_362) https://live.staticflickr.com/823/40974771395_dd41474923_m.jpg,https://www.flickr.com/photos/24406544@N00/40974771395
363,"48.826368, 2.359968",48.826368,2.359968,Avenue de Choisy (PA_363) https://live.staticflickr.com/87/249244416_097841f9ca_m.jpg,https://www.flickr.com/photos/24406544@N00/249244416
364,"48.837082, 2.296282",48.837082,2.296282,Paris 15ème (PA_364) https://live.staticflickr.com/65535/49395831592_8f493b8fde_m.jpg,https://www.flickr.com/photos/24406544@N00/49395831592
366,"48.829896, 2.303577",48.829896,2.303577,Rue Castagnary (PA_366) https://live.staticflickr.com/60/189858520_dbf6735a63_m.jpg,https://www.flickr.com/photos/24406544@N00/189858520
369,"48.853419, 2.385055",48.853419,2.385055,Paris 11ème (PA_369) https://live.staticflickr.com/8417/29468345122_1abae76a01_m.jpg,https://www.flickr.com/photos/24406544@N00/29468345122
370,"48.868165, 2.365322",48.868165,2.365322,Rue du Faubourg du Temple (PA_370) https://live.staticflickr.com/3259/3162827386_681517f04e_m.jpg,https://www.flickr.com/photos/24406544@N00/3162827386
372,"48.852030, 2.373690",48.852030,2.373690,Paris 11ème (PA_372) https://live.staticflickr.com/4831/31353023477_e5f54244ac_m.jpg,https://www.flickr.com/photos/24406544@N00/31353023477
375,"48.870840, 2.395319",48.870840,2.395319,Rue de l'Est (PA_375) https://live.staticflickr.com/29/101008319_4f96027d81_m.jpg,https://www.flickr.com/photos/24406544@N00/101008319
376,"48.861700, 2.362425",48.861700,2.362425,Rue de Poitou (PA_376) https://live.staticflickr.com/65535/50142348687_9b37a5b6ca_m.jpg,https://www.flickr.com/photos/24406544@N00/50142348687
377,"48.863105, 2.370954",48.863105,2.370954,Paris 11ème (PA_377) https://live.staticflickr.com/65535/48531491216_540be53923_m.jpg,https://www.flickr.com/photos/24406544@N00/48531491216
379,"48.858870, 2.357329",48.858870,2.357329,Paris 4ème (PA_379) https://live.staticflickr.com/1976/43815414520_55654feafb_m.jpg,https://www.flickr.com/photos/24406544@N00/43815414520
380,"48.862964, 2.309242",48.862964,2.309242,Paris 7ème (PA_380) https://live.staticflickr.com/4876/46066590702_4c0b2b34b1_m.jpg,https://www.flickr.com/photos/24406544@N00/46066590702
385,"48.831438, 2.368622",48.831438,2.368622,Paris 13ème (PA_385) https://live.staticflickr.com/2806/33941589930_bc1f6d52b3_m.jpg,https://www.flickr.com/photos/24406544@N00/33941589930
390,"48.856054, 2.386296",48.856054,2.386296,Passage Gustave Lepeu (PA_390) https://live.staticflickr.com/48/126948412_ec733de457_m.jpg,https://www.flickr.com/photos/24406544@N00/126948412
392,"48.854561, 2.342419",48.854561,2.342419,Paris 6ème (PA_392) https://live.staticflickr.com/1590/26240077881_7e27809458_m.jpg,https://www.flickr.com/photos/24406544@N00/26240077881
393,"48.842936, 2.366169",48.842936,2.366169,Gare d'Austerlitz (PA_393) https://live.staticflickr.com/114/293617227_994f8d6d6d_m.jpg,https://www.flickr.com/photos/24406544@N00/293617227
400,"48.862180, 2.302268",48.862180,2.302268,Paris 7ème (PA_400) https://live.staticflickr.com/1937/44245289585_3cbd37abb4_m.jpg,https://www.flickr.com/photos/24406544@N00/44245289585
402,"48.862400, 2.320175",48.862400,2.320175,Paris 7ème (PA_402) https://live.staticflickr.com/826/41761961921_98f89cf88a_m.jpg,https://www.flickr.com/photos/24406544@N00/41761961921
403,"48.832040, 2.302944",48.832040,2.302944,Rue Brancion (PA_403) https://live.staticflickr.com/70/189495642_63692e0c2e_m.jpg,https://www.flickr.com/photos/24406544@N00/189495642
415,"48.852877, 2.386350",48.852877,2.386350,Rue Titon (PA_415) https://live.staticflickr.com/93/243002823_f56ae42553_m.jpg,https://www.flickr.com/photos/24406544@N00/243002823
416,"48.871539, 2.363144",48.871539,2.363144,Paris 10ème (PA_416) https://live.staticflickr.com/1970/30615407577_3b86888740_m.jpg,https://www.flickr.com/photos/24406544@N00/30615407577
418,"48.901427, 2.344347",48.901427,2.344347,Saint-Ouen (PA_418) https://live.staticflickr.com/8649/28506379096_8614e85da1_m.jpg,https://www.flickr.com/photos/24406544@N00/28506379096
421,"48.864700, 2.395695",48.864700,2.395695,Rue des Rondeaux (PA_421) https://live.staticflickr.com/82/262695304_ded35daee7_m.jpg,https://www.flickr.com/photos/24406544@N00/262695304
424,"48.864637, 2.295681",48.864637,2.295681,Paris 16ème (PA_424) https://live.staticflickr.com/65535/48393529581_f4e2631b63_m.jpg,https://www.flickr.com/photos/24406544@N00/48393529581
426,"48.816076, 2.356953",48.816076,2.356953,Porte d'Italie (PA_426) https://live.staticflickr.com/1002/1293102651_a0ca89ca18_m.jpg,https://www.flickr.com/photos/24406544@N00/1293102651
430,"48.872103, 2.365171",48.872103,2.365171,Quai de Jemmapes (PA_430) https://live.staticflickr.com/78/204700856_c21768b014_m.jpg,https://www.flickr.com/photos/24406544@N00/204700856
431,"48.847187, 2.414181",48.847187,2.414181,Paris 20ème (PA_431) https://live.staticflickr.com/1927/43459997310_d653d761dd_m.jpg,https://www.flickr.com/photos/24406544@N00/43459997310
432,"48.871151, 2.393292",48.871151,2.393292,Rue de l'Est (PA_432) https://live.staticflickr.com/38/100738518_01c3bbf733_m.jpg,https://www.flickr.com/photos/24406544@N00/100738518
433,"48.843338, 2.402315",48.843338,2.402315,Rue Sibuet (PA_433) https://live.staticflickr.com/159/358192802_5b68c10cae_m.jpg,https://www.flickr.com/photos/24406544@N00/358192802
434,"48.840722, 2.398030",48.840722,2.398030,Paris 12ème (PA_434) https://live.staticflickr.com/5736/30222078631_421f379463_m.jpg,https://www.flickr.com/photos/24406544@N00/30222078631
441,"48.815519, 2.356311",48.815519,2.356311,Paris 13ème (PA_441) https://live.staticflickr.com/4172/33943184750_7d31d61384_m.jpg,https://www.flickr.com/photos/24406544@N00/33943184750
449,"48.871595, 2.314639",48.871595,2.314639,Rue du Fg St-Honoré Galerie Adler (PA_449) https://live.staticflickr.com/109/286632899_9d517e8e05_m.jpg,https://www.flickr.com/photos/24406544@N00/286632899
450,"48.864795, 2.356846",48.864795,2.356846,Rue Volta (PA_450) https://live.staticflickr.com/201/466819566_7d46fa6e17_m.jpg,https://www.flickr.com/photos/24406544@N00/466819566
451,"48.853350, 2.376651",48.853350,2.376651,Pause Café (PA_451) https://live.staticflickr.com/91/237882798_3e631f8cdf_m.jpg,https://www.flickr.com/photos/24406544@N00/237882798
453,"48.864407, 2.389601",48.864407,2.389601,Rue des Amandiers (PA_453) https://live.staticflickr.com/115/268983071_bff214da62_m.jpg,https://www.flickr.com/photos/24406544@N00/268983071
456,"48.864658, 2.294179",48.864658,2.294179,Paris 16ème (PA_456) https://live.staticflickr.com/65535/48673399871_14389264a6_m.jpg,https://www.flickr.com/photos/24406544@N00/48673399871
466,"48.868201, 2.373068",48.868201,2.373068,Rue de la Fontaine au Roi (PA_466) https://live.staticflickr.com/100/254889213_ba1b8aa682_m.jpg,https://www.flickr.com/photos/24406544@N00/254889213
470,"48.864816, 2.345647",48.864816,2.345647,Paris 2ème (PA_470) https://live.staticflickr.com/2843/34104579756_aa7404a4e7_m.jpg,https://www.flickr.com/photos/24406544@N00/34104579756
472,"48.859063, 2.371369",48.859063,2.371369,Boulevard Richard Lenoir (PA_472) https://live.staticflickr.com/3428/3363045855_41c1342522_m.jpg,https://www.flickr.com/photos/24406544@N00/3363045855
475,"48.874675, 2.293311",48.874675,2.293311,Paris 17ème (PA_475) https://live.staticflickr.com/7086/27695701496_afbb3526bd_m.jpg,https://www.flickr.com/photos/24406544@N00/27695701496
480,"48.855877, 2.359893",48.855877,2.359893,Rue du Roi de Sicile (PA_480) https://live.staticflickr.com/65535/50142193702_ee3fb520c3_m.jpg,https://www.flickr.com/photos/24406544@N00/50142193702
481,"48.844885, 2.332513",48.844885,2.332513,Rue d'Assas (PA_481) https://live.staticflickr.com/41/88132228_2f6c3e942f_m.jpg,https://www.flickr.com/photos/24406544@N00/88132228
482,"48.857254, 2.361749",48.857254,2.361749,Rue Pavée (PA_482) https://live.staticflickr.com/117/292161948_d7f7cf5a25_m.jpg,https://www.flickr.com/photos/24406544@N00/292161948
483,"48.863910, 2.352093",48.863910,2.352093,Paris 3ème (PA_483) https://live.staticflickr.com/65535/48735798967_89d887af4e_m.jpg,https://www.flickr.com/photos/24406544@N00/48735798967
489,"48.874178, 2.385556",48.874178,2.385556,Rue Clavel (PA_489) https://live.staticflickr.com/48/179897544_9d7f90613d_m.jpg,https://www.flickr.com/photos/24406544@N00/179897544
490,"48.899649, 2.392036",48.899649,2.392036,Rue de la Chemin de Fer (PA_490) https://live.staticflickr.com/151/430188276_a56d6654fc_m.jpg,https://www.flickr.com/photos/24406544@N00/430188276
492,"48.873950, 2.395288",48.873950,2.395288,Paris 20ème (PA_492) https://live.staticflickr.com/4796/39832072905_9c81a3cdc0_m.jpg,https://www.flickr.com/photos/24406544@N00/39832072905
494,"48.841418, 2.325174",48.841418,2.325174,Place Edgar Quinet (PA_494) https://live.staticflickr.com/53/249471685_935f19c7ba_m.jpg,https://www.flickr.com/photos/24406544@N00/249471685
495,"48.844494, 2.352572",48.844494,2.352572,Paris 5ème (PA_495) https://live.staticflickr.com/5646/30947776296_42b6f3927c_m.jpg,https://www.flickr.com/photos/24406544@N00/30947776296
498,"48.880930, 2.335838",48.880930,2.335838,Paris 9ème (PA_498) https://live.staticflickr.com/4169/34463734615_65351920af_m.jpg,https://www.flickr.com/photos/24406544@N00/34463734615
499,"48.877431, 2.365633",48.877431,2.365633,Quai de Jemmapes (PA_499) https://live.staticflickr.com/65535/47049776504_08bcd5e3df_m.jpg,https://www.flickr.com/photos/24406544@N00/47049776504
501,"48.866401, 2.364603",48.866401,2.364603,Paris 3ème (PA_501) https://live.staticflickr.com/7897/46503572565_4b61ca952c_m.jpg,https://www.flickr.com/photos/24406544@N00/46503572565
503,"48.860944, 2.364686",48.860944,2.364686,Paris 3ème (PA_503) https://live.staticflickr.com/8048/29466737620_904a8c7134_m.jpg,https://www.flickr.com/photos/24406544@N00/29466737620
504,"48.857684, 2.358455",48.857684,2.358455,Rue des Rosiers (PA_504) https://live.staticflickr.com/230/456656262_faa8ab0ad9_m.jpg,https://www.flickr.com/photos/24406544@N00/456656262
506,"48.866900, 2.349250",48.866900,2.349250,Paris 2ème (PA_506) https://live.staticflickr.com/2892/33226850280_6decac8e4f_m.jpg,https://www.flickr.com/photos/24406544@N00/33226850280
516,"48.853851, 2.369999",48.853851,2.369999,Place de la Bastille (PA_516) https://live.staticflickr.com/3615/3394616528_d56d744083_m.jpg,https://www.flickr.com/photos/24406544@N00/3394616528
521,"48.875551, 2.399901",48.875551,2.399901,Rue de Belleville (PA_521) https://live.staticflickr.com/95/260595453_d9eec87e95_m.jpg,https://www.flickr.com/photos/24406544@N00/260595453
522,"48.864083, 2.370780",48.864083,2.370780,Paris 11ème (PA_522) https://live.staticflickr.com/5656/30775996502_87ab395b15_m.jpg,https://www.flickr.com/photos/24406544@N00/30775996502
525,"48.859366, 2.352927",48.859366,2.352927,Rue St-Mérri (PA_525) https://live.staticflickr.com/1317/1481291057_1d45a8e502_m.jpg,https://www.flickr.com/photos/24406544@N00/1481291057
529,"48.849375, 2.351725",48.849375,2.351725,Paris 5ème (PA_529) https://live.staticflickr.com/480/31459411222_37e94c82e9_m.jpg,https://www.flickr.com/photos/24406544@N00/31459411222
530,"48.873606, 2.387981",48.873606,2.387981,Rue de la Mare (PA_530) https://live.staticflickr.com/103/258553136_ab6dd2ddbb_m.jpg,https://www.flickr.com/photos/24406544@N00/258553136
536,"48.839356, 2.388668",48.839356,2.388668,Ruelle de la Planchette (PA_536) https://live.staticflickr.com/128/366811004_24b012d5a9_m.jpg,https://www.flickr.com/photos/24406544@N00/366811004
543,"48.832527, 2.371029",48.832527,2.371029,Rue Duchefdelaville (PA_543) https://live.staticflickr.com/95/244826824_9899ed096c_m.jpg,https://www.flickr.com/photos/24406544@N00/244826824
551,"48.865194, 2.411423",48.865194,2.411423,Porte de Bangolet (PA_551) https://live.staticflickr.com/65535/49536593338_56724206fd_m.jpg,https://www.flickr.com/photos/24406544@N00/49536593338
554,"48.842858, 2.392251",48.842858,2.392251,Rue de Reuilly (PA_554) https://live.staticflickr.com/55/118682586_b3bab212c0_m.jpg,https://www.flickr.com/photos/24406544@N00/118682586
556,"48.851908, 2.349069",48.851908,2.349069,Paris 5ème (PA_556) https://live.staticflickr.com/672/21720671163_4257e83587_m.jpg,https://www.flickr.com/photos/24406544@N00/21720671163
560,"48.868568, 2.273912",48.868568,2.273912,Boulevard Flandrin (PA_560) https://live.staticflickr.com/76/222245656_0f44de7a8b_m.jpg,https://www.flickr.com/photos/24406544@N00/222245656
562,"48.892190, 2.339916",48.892190,2.339916,Rue du Ruisseau (PA_562) https://live.staticflickr.com/55/158508577_df239201a3_m.jpg,https://www.flickr.com/photos/24406544@N00/158508577
564,"48.839900, 2.361972",48.839900,2.361972,Boulevard de l'Hôpital (PA_564) https://live.staticflickr.com/3747/9298196075_9ac45af78f_m.jpg,https://www.flickr.com/photos/24406544@N00/9298196075
566,"48.859879, 2.388238",48.859879,2.388238,Rue de la Roquette (PA_566) https://live.staticflickr.com/51/127396847_ecf8e98117_m.jpg,https://www.flickr.com/photos/24406544@N00/127396847
567,"48.876147, 2.401907",48.876147,2.401907,Rue de Belleville (PA_567) https://live.staticflickr.com/110/260630477_d51cda41ba_m.jpg,https://www.flickr.com/photos/24406544@N00/260630477
571,"48.848207, 2.367950",48.848207,2.367950,Paris 12ème (PA_571) https://live.staticflickr.com/1915/30527749147_33345de272_m.jpg,https://www.flickr.com/photos/24406544@N00/30527749147
573,"48.871151, 2.393292",48.871151,2.393292,Place Guignier (PA_573) https://live.staticflickr.com/19/100738516_f558634adc_m.jpg,https://www.flickr.com/photos/24406544@N00/100738516
577,"48.873225, 2.389891",48.873225,2.389891,Rue Levert (PA_577) https://live.staticflickr.com/37/99629166_c1bdf3d082_m.jpg,https://www.flickr.com/photos/24406544@N00/99629166
581,"48.862385, 2.335163",48.862385,2.335163,Musée du Louvre (PA_581) https://live.staticflickr.com/47/148599837_5732fda27a_m.jpg,https://www.flickr.com/photos/24406544@N00/148599837
587,"48.859894, 2.352586",48.859894,2.352586,Rue du Renard (PA_587) https://live.staticflickr.com/65535/49379462228_66184b28df_m.jpg,https://www.flickr.com/photos/24406544@N00/49379462228
588,"48.852651, 2.363272",48.852651,2.363272,Rue Charles V (PA_588) https://live.staticflickr.com/216/495902888_05dae532e8_m.jpg,https://www.flickr.com/photos/24406544@N00/495902888
591,"48.869132, 2.372918",48.869132,2.372918,Rue Darboy (PA_591) https://live.staticflickr.com/81/254398450_9a1dd589a5_m.jpg,https://www.flickr.com/photos/24406544@N00/254398450
593,"48.836414, 2.278203",48.836414,2.278203,Place Balard (PA_593) https://live.staticflickr.com/65535/50189559561_1f04d1d416_m.jpg,https://www.flickr.com/photos/24406544@N00/50189559561
594,"48.836666, 2.278783",48.836666,2.278783,Paris 15ème (PA_594) https://live.staticflickr.com/8573/28521921132_102574fde2_m.jpg,https://www.flickr.com/photos/24406544@N00/28521921132
600,"48.886617, 2.396875",48.886617,2.396875,Porte Chaumont (PA_600) https://live.staticflickr.com/39/122581467_42c235ee9a_m.jpg,https://www.flickr.com/photos/24406544@N00/122581467
606,"48.867192, 2.344872",48.867192,2.344872,Rue Aboukir (PA_606) https://live.staticflickr.com/110/251200748_e87d7bb150_m.jpg,https://www.flickr.com/photos/24406544@N00/251200748
607,"48.883463, 2.341804",48.883463,2.341804,Space invaders (PA_607) https://live.staticflickr.com/5246/5373273162_420f934d07_m.jpg,https://www.flickr.com/photos/57661287@N02/5373273162
609,"48.884194, 2.359399",48.884194,2.359399,Space Invaders (PA_609) https://live.staticflickr.com/5103/5595659517_0880b66017_m.jpg,https://www.flickr.com/photos/57661287@N02/5595659517
610,"48.861722, 2.400276",48.861722,2.400276,Rue des Pyrénées (PA_610) https://live.staticflickr.com/85/277139267_a5a90dc0c6_m.jpg,https://www.flickr.com/photos/24406544@N00/277139267
616,"48.877730, 2.288327",48.877730,2.288327,Paris 17ème (PA_616) https://live.staticflickr.com/1447/24676428631_3b2a1ee30a_m.jpg,https://www.flickr.com/photos/24406544@N00/24676428631
620,"48.870410, 2.385621",48.870410,2.385621,Paris 20ème (PA_620) https://live.staticflickr.com/65535/48049566471_4b6149e893_m.jpg,https://www.flickr.com/photos/24406544@N00/48049566471
623,"48.827276, 2.385942",48.827276,2.385942,Quai Panhard et Levassor (PA_623) https://live.staticflickr.com/75/198667689_b6dcafb1e6_m.jpg,https://www.flickr.com/photos/24406544@N00/198667689
624,"48.851933, 2.328452",48.851933,2.328452,Paris 7ème (PA_624) https://live.staticflickr.com/2856/33580773683_1fb834153a_m.jpg,https://www.flickr.com/photos/24406544@N00/33580773683
627,"48.851691, 2.329359",48.851691,2.329359,Paris 6ème (PA_627) https://live.staticflickr.com/65535/49451904431_d07087c88a_m.jpg,https://www.flickr.com/photos/24406544@N00/49451904431
633,"48.881805, 2.368844",48.881805,2.368844,Quai de Valmy (PA_633) https://live.staticflickr.com/65535/50122480107_666be27309_m.jpg,https://www.flickr.com/photos/24406544@N00/50122480107
634,"48.852157, 2.342598",48.852157,2.342598,Rue Hautefeuille (PA_634) https://live.staticflickr.com/65535/49455321586_3883cb98dc_m.jpg,https://www.flickr.com/photos/24406544@N00/49455321586
641,"48.886222, 2.337834",48.886222,2.337834,Rue d'Orchampt (PA_641) https://live.staticflickr.com/1204/533524240_38b763ed95_m.jpg,https://www.flickr.com/photos/24406544@N00/533524240
643,"48.884525, 2.337856",48.884525,2.337856,Rue des Abbesses (PA_643) https://live.staticflickr.com/4819/46875276491_8c9b9ab534_m.jpg,https://www.flickr.com/photos/24406544@N00/46875276491
649,"48.882811, 2.389912",48.882811,2.389912,Rue Gaston Pinot (PA_649) https://live.staticflickr.com/43/122049795_f72815b2c3_m.jpg,https://www.flickr.com/photos/24406544@N00/122049795
650,"48.847518, 2.268022",48.847518,2.268022,Rue Désaugiers (PA_650) https://live.staticflickr.com/65535/48877529842_0b2eaf49b2_m.jpg,https://www.flickr.com/photos/24406544@N00/48877529842
651,"48.867297, 2.283310",48.867297,2.283310,Paris 16ème (PA_651) https://live.staticflickr.com/65535/48838770408_12ddfdeb93_m.jpg,https://www.flickr.com/photos/24406544@N00/48838770408
656,"48.895907, 2.339529",48.895907,2.339529,Paris 18ème (PA_656) https://live.staticflickr.com/7866/46262857975_ebf6cd2145_m.jpg,https://www.flickr.com/photos/24406544@N00/46262857975
657,"48.883231, 2.371094",48.883231,2.371094,Avenue Jean Jaurès (PA_657) https://live.staticflickr.com/72/204210249_8d62173b98_m.jpg,https://www.flickr.com/photos/24406544@N00/204210249
658,"48.871772, 2.404246",48.871772,2.404246,Métro St-Fargeau (PA_658) https://live.staticflickr.com/65535/49177119012_458184abc7_m.jpg,https://www.flickr.com/photos/24406544@N00/49177119012
662,"48.883873, 2.312010",48.883873,2.312010,Paris 17ème (PA_662) https://live.staticflickr.com/65535/49778738897_66c31e4571_m.jpg,https://www.flickr.com/photos/24406544@N00/49778738897
663,"48.881086, 2.289576",48.881086,2.289576,Rue Guersant (PA_663) https://live.staticflickr.com/101/285479233_8a1412d837_m.jpg,https://www.flickr.com/photos/24406544@N00/285479233
666,"48.852870, 2.286261",48.852870,2.286261,Quai de Grenelle (PA_666) https://live.staticflickr.com/215/445822879_2f8240f2e0_m.jpg,https://www.flickr.com/photos/24406544@N00/445822879
668,"48.866239, 2.380793",48.866239,2.380793,Avenue Jean Aicard (PA_668) https://live.staticflickr.com/97/243243380_229b00b290_m.jpg,https://www.flickr.com/photos/24406544@N00/243243380
669,"48.898284, 2.353659",48.898284,2.353659,Paris 18ème (PA_669) https://live.staticflickr.com/7803/47117480432_149dd5569e_m.jpg,https://www.flickr.com/photos/24406544@N00/47117480432
671,"48.876581, 2.378046",48.876581,2.378046,Avenue Simon Bolivar (PA_671) https://live.staticflickr.com/56/176328004_640c8add3f_m.jpg,https://www.flickr.com/photos/24406544@N00/176328004
672,"48.864372, 2.381672",48.864372,2.381672,Rue des Bluets (PA_672) https://live.staticflickr.com/79/243677961_588fedd950_m.jpg,https://www.flickr.com/photos/24406544@N00/243677961
674,"48.840323, 2.315486",48.840323,2.315486,Boulevard Pasteur (PA_674) https://live.staticflickr.com/160/439515656_b4dbbc427a_m.jpg,https://www.flickr.com/photos/24406544@N00/439515656
677,"48.854642, 2.336761",48.854642,2.336761,Rue Jacob (PA_677) https://live.staticflickr.com/69/222963048_075ace3d64_m.jpg,https://www.flickr.com/photos/24406544@N00/222963048
678,"48.857201, 2.336429",48.857201,2.336429,Rue de Seine (PA_678) https://live.staticflickr.com/98/231892673_e458eb08cd_m.jpg,https://www.flickr.com/photos/24406544@N00/231892673
681,"48.855566, 2.362049",48.855566,2.362049,Rue d'Ormesson (PA_681) https://live.staticflickr.com/89/232795703_7cda55a27e_m.jpg,https://www.flickr.com/photos/24406544@N00/232795703
682,"48.856837, 2.363026",48.856837,2.363026,Rue des Francs Bourgeois (PA_682) https://live.staticflickr.com/92/233925654_6cc9b95fcf_m.jpg,https://www.flickr.com/photos/24406544@N00/233925654
684,"48.840236, 2.359311",48.840236,2.359311,Paris 5ème (PA_684) https://live.staticflickr.com/447/19754570699_615992a202_m.jpg,https://www.flickr.com/photos/24406544@N00/19754570699
689,"48.872378, 2.377091",48.872378,2.377091,Boulevard de la Villette (PA_689) https://live.staticflickr.com/103/289776457_25bd6885fd_m.jpg,https://www.flickr.com/photos/24406544@N00/289776457
691,"48.850388, 2.265737",48.850388,2.265737,Rue Raffet (PA_691) https://live.staticflickr.com/199/515722956_3fb292bb81_m.jpg,https://www.flickr.com/photos/24406544@N00/515722956
699,"48.857289, 2.403838",48.857289,2.403838,Rue des Pyrénées (PA_699) https://live.staticflickr.com/163/412428335_4dcdc24c8d_m.jpg,https://www.flickr.com/photos/24406544@N00/412428335
701,"48.854063, 2.381833",48.854063,2.381833,Paris 11ème (PA_701) https://live.staticflickr.com/1733/40682953820_1955fa7290_m.jpg,https://www.flickr.com/photos/24406544@N00/40682953820
702,"48.853795, 2.381812",48.853795,2.381812,Rue de Charonne (PA_702) https://live.staticflickr.com/161/413437723_0a62879fc1_m.jpg,https://www.flickr.com/photos/24406544@N00/413437723
704,"48.852023, 2.365858",48.852023,2.365858,Rue de la Cerisaie (PA_704) https://live.staticflickr.com/232/459147983_edf5afa674_m.jpg,https://www.flickr.com/photos/24406544@N00/459147983
705,"48.825673, 2.374613",48.825673,2.374613,Paris 13ème (PA_705) https://live.staticflickr.com/174/404412277_1ec9ea24cf_m.jpg,https://www.flickr.com/photos/24406544@N00/404412277
707,"48.853516, 2.364045",48.853516,2.364045,Paris 4ème (PA_707) https://live.staticflickr.com/47/387712517_832dab7670_m.jpg,https://www.flickr.com/photos/24406544@N00/387712517
714,"48.826943, 2.379430",48.826943,2.379430,Paris 13ème (PA_714) https://live.staticflickr.com/65535/50211895846_1488945fdb_m.jpg,https://www.flickr.com/photos/24406544@N00/50211895846
718,"48.855792, 2.378572",48.855792,2.378572,Rue Basfroi (PA_718) https://live.staticflickr.com/195/491355053_68a7743b03_m.jpg,https://www.flickr.com/photos/24406544@N00/491355053
719,"48.858514, 2.380170",48.858514,2.380170,Place Léon Blum (PA_719) https://live.staticflickr.com/198/490030057_1216a71b30_m.jpg,https://www.flickr.com/photos/24406544@N00/490030057
720,"48.860148, 2.347447",48.860148,2.347447,Rue de la Ferronnerie (PA_720) https://live.staticflickr.com/231/472188917_5fa7645122_m.jpg,https://www.flickr.com/photos/24406544@N00/472188917
721,"48.890543, 2.382230",48.890543,2.382230,Rue de l'Ourcq (PA_721) https://live.staticflickr.com/195/522961105_efadc7bbca_m.jpg,https://www.flickr.com/photos/24406544@N00/522961105
723,"48.881327, 2.327588",48.881327,2.327588,Paris 9ème (PA_723) https://live.staticflickr.com/716/22127027891_cacd68fe79_m.jpg,https://www.flickr.com/photos/24406544@N00/22127027891
725,"48.879470, 2.357640",48.879470,2.357640,Rue de Dunkerque (PA_725) https://live.staticflickr.com/194/521100363_6a6b331dcf_m.jpg,https://www.flickr.com/photos/24406544@N00/521100363
727,"48.880924, 2.328554",48.880924,2.328554,Paris 9ème (PA_727) https://live.staticflickr.com/1085/790396078_9ee3cf5d85_m.jpg,https://www.flickr.com/photos/24406544@N00/790396078
729,"48.875886, 2.326043",48.875886,2.326043,Rue Saint Lazare (PA_729) https://live.staticflickr.com/1103/540613648_3810bc4365_m.jpg,https://www.flickr.com/photos/24406544@N00/540613648
730,"48.875879, 2.347147",48.875879,2.347147,Paris 9ème (PA_730) https://live.staticflickr.com/1325/637193710_5cd9e9d3ee_m.jpg,https://www.flickr.com/photos/24406544@N00/637193710
733,"48.870530, 2.377703",48.870530,2.377703,Belleville (PA_733) https://live.staticflickr.com/1237/869044776_b4f848606f_m.jpg,https://www.flickr.com/photos/24406544@N00/869044776
734,"48.873141, 2.343113",48.873141,2.343113,Paris 9ème (PA_734) https://live.staticflickr.com/1021/1192305343_08e2d38bb8_m.jpg,https://www.flickr.com/photos/24406544@N00/1192305343
740,"48.839038, 2.395974",48.839038,2.395974,Paris 12ème (PA_740) https://live.staticflickr.com/2259/1853643706_a867c2a7d8_m.jpg,https://www.flickr.com/photos/24406544@N00/1853643706
746,"48.864255, 2.364034",48.864255,2.364034,Rue Charlot (PA_746) https://live.staticflickr.com/2051/2091164037_da677095e6_m.jpg,https://www.flickr.com/photos/24406544@N00/2091164037
747,"48.853957, 2.338156",48.853957,2.338156,Librairie Mazarine (PA_747) https://live.staticflickr.com/2323/2102272989_0f71aa4abc_m.jpg,https://www.flickr.com/photos/24406544@N00/2102272989
749,"48.858588, 2.435874",48.858588,2.435874,Croix de Chavaux (PA_749) https://live.staticflickr.com/2603/4033866930_2dc4bee9c0_m.jpg,https://www.flickr.com/photos/24406544@N00/4033866930
750,"48.857423, 2.434662",48.857423,2.434662,Montreuil Centre (PA_750) https://live.staticflickr.com/2627/4030301957_9dcb7de4b1_m.jpg,https://www.flickr.com/photos/24406544@N00/4030301957
755,"48.875116, 2.340517",48.875116,2.340517,Paris 9ème (PA_755) https://live.staticflickr.com/2292/2228804753_4a9f9d57a8_m.jpg,https://www.flickr.com/photos/24406544@N00/2228804753
757,"48.833728, 2.243914",48.833728,2.243914,Boulogne-Billancourt (PA_757) https://live.staticflickr.com/4037/5140174186_b9145a1b8c_m.jpg,https://www.flickr.com/photos/24406544@N00/5140174186
760,"48.834928, 2.262014",48.834928,2.262014,Paris 16ème (PA_760) https://live.staticflickr.com/3128/2560028229_47264cdc4b_m.jpg,https://www.flickr.com/photos/24406544@N00/2560028229
781,"48.846088, 2.354363",48.846088,2.354363,Paris 5ème (PA_781) https://live.staticflickr.com/3118/2717643596_e0de73d1d6_m.jpg,https://www.flickr.com/photos/24406544@N00/2717643596
800,"48.865812, 2.343564",48.865812,2.343564,Paris 2ème (PA_800) https://live.staticflickr.com/2456/3756783561_bc87a3af70_m.jpg,https://www.flickr.com/photos/24406544@N00/3756783561
801,"48.857317, 2.331408",48.857317,2.331408,Paris 7ème (PA_801) https://live.staticflickr.com/3617/3419709080_34a983b1bb_m.jpg,https://www.flickr.com/photos/24406544@N00/3419709080
809,"48.843282, 2.405973",48.843282,2.405973,Paris 12ème (PA_809) https://live.staticflickr.com/4022/4405342897_f75613cd26_m.jpg,https://www.flickr.com/photos/24406544@N00/4405342897
810,"48.850575, 2.392841",48.850575,2.392841,Paris 11ème (PA_810) https://live.staticflickr.com/4011/4467077255_b38bf626e3_m.jpg,https://www.flickr.com/photos/24406544@N00/4467077255
811,"48.850282, 2.383131",48.850282,2.383131,Paris 11ème (PA_811) https://live.staticflickr.com/2710/4445456600_6f8d72d9ea_m.jpg,https://www.flickr.com/photos/24406544@N00/4445456600
814,"48.866895, 2.351406",48.866895,2.351406,Paris 2ème (PA_814) https://live.staticflickr.com/4063/4273795602_2a6160d01b_m.jpg,https://www.flickr.com/photos/24406544@N00/4273795602
815,"48.858612, 2.352007",48.858612,2.352007,Paris 4ème (PA_815) https://live.staticflickr.com/2685/4217627787_47dc7c557b_m.jpg,https://www.flickr.com/photos/24406544@N00/4217627787
817,"48.860239, 2.404321",48.860239,2.404321,Paris 20ème (PA_817) https://live.staticflickr.com/4047/4327095132_1eca94208e_m.jpg,https://www.flickr.com/photos/24406544@N00/4327095132
823,"48.886800, 2.385041",48.886800,2.385041,Paris 19ème (PA_823) https://live.staticflickr.com/4069/4391132399_99a45cbdbd_m.jpg,https://www.flickr.com/photos/24406544@N00/4391132399
824,"48.859809, 2.403484",48.859809,2.403484,Rue de Bagnolet (PA_824 | #9 ) https://live.staticflickr.com/4080/4905855458_28449b9fd3_m.jpg,https://www.flickr.com/photos/24406544@N00/4905855458
825,"48.855799, 2.423053",48.855799,2.423053,Montreuil (PA_825) https://live.staticflickr.com/3178/5857697866_cc46914cab_m.jpg,https://www.flickr.com/photos/24406544@N00/5857697866
827,"48.863307, 2.399579",48.863307,2.399579,Paris 20ème (PA_827) https://live.staticflickr.com/3215/4562348093_a1c1192d3b_m.jpg,https://www.flickr.com/photos/24406544@N00/4562348093
828,"48.854896, 2.399160",48.854896,2.399160,Paris 20ème (PA_828) https://live.staticflickr.com/2282/4513973304_7c8a357f1e_m.jpg,https://www.flickr.com/photos/24406544@N00/4513973304
829,"48.855144, 2.398880",48.855144,2.398880,Paris 20ème (PA_829) https://live.staticflickr.com/2706/4517957030_978745235d_m.jpg,https://www.flickr.com/photos/24406544@N00/4517957030
830,"48.856202, 2.405689",48.856202,2.405689,Paris 20ème (PA_830) https://live.staticflickr.com/4142/4817301251_62a553e6a6_m.jpg,https://www.flickr.com/photos/24406544@N00/4817301251
831,"48.851960, 2.401177",48.851960,2.401177,Paris 20ème (PA_831) https://live.staticflickr.com/2728/4510209430_56bc314d1c_m.jpg,https://www.flickr.com/photos/24406544@N00/4510209430
849,"48.840567, 2.323715",48.840567,2.323715,Paris 14ème (PA_849) https://live.staticflickr.com/4032/4699879052_6dcc82b12c_m.jpg,https://www.flickr.com/photos/24406544@N00/4699879052
851,"48.842237, 2.330507",48.842237,2.330507,Paris 6ème (PA_851) https://live.staticflickr.com/5181/5640789766_001cc16806_m.jpg,https://www.flickr.com/photos/24406544@N00/5640789766
856,"48.886328, 2.340581",48.886328,2.340581,Place du Tertre (PA_856) https://live.staticflickr.com/4009/4685218854_d4822955fa_m.jpg,https://www.flickr.com/photos/24406544@N00/4685218854
858,"48.878934, 2.336761",48.878934,2.336761,Paris 9ème (PA_858) https://live.staticflickr.com/4052/4705613058_ae07f04ef2_m.jpg,https://www.flickr.com/photos/24406544@N00/4705613058
860,"48.861336, 2.339916",48.861336,2.339916,Paris 1èr (PA_860) https://live.staticflickr.com/4080/4773444247_c2d4951c07_m.jpg,https://www.flickr.com/photos/24406544@N00/4773444247
862,"48.873282, 2.309473",48.873282,2.309473,Paris 8ème (PA_862) https://live.staticflickr.com/4127/4835483192_9f4c6ac121_m.jpg,https://www.flickr.com/photos/24406544@N00/4835483192
864,"48.878609, 2.337421",48.878609,2.337421,Paris 9ème (PA_864) https://live.staticflickr.com/4117/4852443683_1054aa67dd_m.jpg,https://www.flickr.com/photos/24406544@N00/4852443683
867,"48.880931, 2.312074",48.880931,2.312074,Paris 17ème (PA_867) https://live.staticflickr.com/5201/5299680087_82d85a7d31_m.jpg,https://www.flickr.com/photos/24406544@N00/5299680087
868,"48.869785, 2.323227",48.869785,2.323227,Paris 8ème (PA_868) https://live.staticflickr.com/4134/4777707876_cfb2734633_m.jpg,https://www.flickr.com/photos/24406544@N00/4777707876
869,"48.871885, 2.364699",48.871885,2.364699,Canal Saint-Martin (PA_869) https://live.staticflickr.com/4143/4801564177_467c566c35_m.jpg,https://www.flickr.com/photos/24406544@N00/4801564177
870,"48.871701, 2.364506",48.871701,2.364506,Quai de Valmy (PA_870) https://live.staticflickr.com/4093/4800724051_9b7e081173_m.jpg,https://www.flickr.com/photos/24406544@N00/4800724051
871,"48.854896, 2.399160",48.854896,2.399160,Paris 20ème (PA_871) https://live.staticflickr.com/4110/4989246901_a4bf79ae4f_m.jpg,https://www.flickr.com/photos/24406544@N00/4989246901
872,"48.881693, 2.368776",48.881693,2.368776,Point Ephemeres (PA_872) https://live.staticflickr.com/4152/4966731271_69344735cd_m.jpg,https://www.flickr.com/photos/24406544@N00/4966731271
876,"48.826524, 2.363873",48.826524,2.363873,Paris 13ème (PA_876) https://live.staticflickr.com/65535/50205920757_a2bbe67fc5_m.jpg,https://www.flickr.com/photos/24406544@N00/50205920757
877,"48.856237, 2.424899",48.856237,2.424899,Montreuil (PA_877) https://live.staticflickr.com/3042/5853955945_d5d5ba118c_m.jpg,https://www.flickr.com/photos/24406544@N00/5853955945
878,"48.858672, 2.362757",48.858672,2.362757,Paris 3ème (PA_878) https://live.staticflickr.com/5138/5476889193_33e273be68_m.jpg,https://www.flickr.com/photos/24406544@N00/5476889193
883,"48.887220, 2.369946",48.887220,2.369946,Paris 19ème (PA_883) https://live.staticflickr.com/3421/5757151402_450655cbd6_m.jpg,https://www.flickr.com/photos/24406544@N00/5757151402
886,"48.853512, 2.380396",48.853512,2.380396,Paris 11ème (PA_886) https://live.staticflickr.com/5023/5614234564_3d22265abf_m.jpg,https://www.flickr.com/photos/24406544@N00/5614234564
887,"48.828095, 2.389547",48.828095,2.389547,Paris 12ème (PA_887) https://live.staticflickr.com/5261/5622495624_64fe4ea25f_m.jpg,https://www.flickr.com/photos/24406544@N00/5622495624
889,"48.891146, 2.373744",48.891146,2.373744,Paris 19ème (PA_889) https://live.staticflickr.com/2432/5755671596_250eb17e12_m.jpg,https://www.flickr.com/photos/24406544@N00/5755671596
891,"48.886086, 2.317416",48.886086,2.317416,Paris 17ème (PA_891) https://live.staticflickr.com/5310/5663617569_6e6540a50b_m.jpg,https://www.flickr.com/photos/24406544@N00/5663617569
893,"48.864326, 2.332749",48.864326,2.332749,Paris 1er (PA_893) https://live.staticflickr.com/5091/5475686699_d38eb1708f_m.jpg,https://www.flickr.com/photos/24406544@N00/5475686699
900,"48.882176, 2.337727",48.882176,2.337727,Paris 9ème (PA_900) https://live.staticflickr.com/5304/5675386614_ed93ff41f6_m.jpg,https://www.flickr.com/photos/24406544@N00/5675386614
901,"48.838487, 2.300112",48.838487,2.300112,Paris 15ème (PA_901) https://live.staticflickr.com/6074/6120032199_86c18ddaa3_m.jpg,https://www.flickr.com/photos/24406544@N00/6120032199
904,"48.849947, 2.378818",48.849947,2.378818,Pizza Pink Flamingo (PA_904) https://live.staticflickr.com/6198/6074590126_842715fb08_m.jpg,https://www.flickr.com/photos/24406544@N00/6074590126
905,"48.900569, 2.371802",48.900569,2.371802,Paris 19ème (PA_905) https://live.staticflickr.com/65535/50227612483_4ed4088aca_m.jpg,https://www.flickr.com/photos/24406544@N00/50227612483
907,"48.899603, 2.358552",48.899603,2.358552,Paris 18ème (PA_907) https://live.staticflickr.com/5309/5831962976_b81f272942_m.jpg,https://www.flickr.com/photos/24406544@N00/5831962976
908,"48.853600, 2.389719",48.853600,2.389719,Paris 11ème (PA_908) https://live.staticflickr.com/6004/5942320427_b63ccd2566_m.jpg,https://www.flickr.com/photos/24406544@N00/5942320427
909,"48.889273, 2.396821",48.889273,2.396821,Paris 19ème (PA_909) https://live.staticflickr.com/65535/50232162796_1841f7e769_m.jpg,https://www.flickr.com/photos/24406544@N00/50232162796
910,"48.903443, 2.392004",48.903443,2.392004,Pantin (PA_910) https://live.staticflickr.com/6090/6107736519_f1fb432c9f_m.jpg,https://www.flickr.com/photos/24406544@N00/6107736519
919,"48.864400, 2.347748",48.864400,2.347748,Paris 2ème (PA_919) https://live.staticflickr.com/5224/5692969378_0bf1c47977_m.jpg,https://www.flickr.com/photos/24406544@N00/5692969378
921,"48.838688, 2.375696",48.838688,2.375696,Paris 12ème (PA_921) https://live.staticflickr.com/5183/5623559609_cf71b1b0b7_m.jpg,https://www.flickr.com/photos/24406544@N00/5623559609
922,"48.837506, 2.374109",48.837506,2.374109,Paris 13ème (PA_922) https://live.staticflickr.com/5024/5630607512_55b7467c7e_m.jpg,https://www.flickr.com/photos/24406544@N00/5630607512
923,"48.836927, 2.390180",48.836927,2.390180,Paris 12ème (PA_923) https://live.staticflickr.com/5065/5621000383_dd7b3476df_m.jpg,https://www.flickr.com/photos/24406544@N00/5621000383
926,"48.861644, 2.351685",48.861644,2.351685,Paris 3ème (PA_926) https://live.staticflickr.com/4108/5604512728_ef2c7ff715_m.jpg,https://www.flickr.com/photos/24406544@N00/5604512728
932,"48.868981, 2.356288",48.868981,2.356288,Paris 10ème  (PA_932) https://live.staticflickr.com/5028/5583835553_513767f040_m.jpg,https://www.flickr.com/photos/24406544@N00/5583835553
937,"48.830161, 2.347190",48.830161,2.347190,Paris 13ème (PA_937) https://live.staticflickr.com/3529/5789009065_96bfebac20_m.jpg,https://www.flickr.com/photos/24406544@N00/5789009065
942,"48.825867, 2.352619",48.825867,2.352619,Paris 13ème (PA_942) https://live.staticflickr.com/65535/49507147121_43afe7cedf_m.jpg,https://www.flickr.com/photos/24406544@N00/49507147121
943,"48.831242, 2.379055",48.831242,2.379055,Paris 13ème (PA_943) https://live.staticflickr.com/3210/5859014591_8f88a495af_m.jpg,https://www.flickr.com/photos/24406544@N00/5859014591
946,"48.870700, 2.354936",48.870700,2.354936,Paris 10ème (PA_946) https://live.staticflickr.com/5139/5588699338_80f78d55b9_m.jpg,https://www.flickr.com/photos/24406544@N00/5588699338
947,"48.875173, 2.355709",48.875173,2.355709,Paris 10ème (PA_947) https://live.staticflickr.com/3481/5693727505_2b0283d6e1_m.jpg,https://www.flickr.com/photos/24406544@N00/5693727505
949,"48.844998, 2.297730",48.844998,2.297730,Paris 15ème (PA_949) https://live.staticflickr.com/5021/5792325257_da632c0076_m.jpg,https://www.flickr.com/photos/24406544@N00/5792325257
950,"48.853731, 2.289479",48.853731,2.289479,Paris 15ème (PA_950) https://live.staticflickr.com/5229/5703831611_49152950d9_m.jpg,https://www.flickr.com/photos/24406544@N00/5703831611
952,"48.868151, 2.324767",48.868151,2.324767,Paris 1er (PA_952) https://live.staticflickr.com/6205/6135600809_fcaa4a9276_m.jpg,https://www.flickr.com/photos/24406544@N00/6135600809
954,"48.865145, 2.363090",48.865145,2.363090,Paris 3ème (PA_954) https://live.staticflickr.com/6151/6152432886_6e801f3bca_m.jpg,https://www.flickr.com/photos/24406544@N00/6152432886
956,"48.867009, 2.353477",48.867009,2.353477,Paris 3ème (PA_956) https://live.staticflickr.com/6048/5909731429_720e88f8bd_m.jpg,https://www.flickr.com/photos/24406544@N00/5909731429
962,"48.876884, 2.406563",48.876884,2.406563,Paris 20ème (PA_962) https://live.staticflickr.com/2301/5808468895_12e0b1fa30_m.jpg,https://www.flickr.com/photos/24406544@N00/5808468895
963,"48.866222, 2.364750",48.866222,2.364750,Paris 3ème (PA_963) https://live.staticflickr.com/5278/5830454012_76aa1d93ba_m.jpg,https://www.flickr.com/photos/24406544@N00/5830454012
964,"48.861189, 2.357972",48.861189,2.357972,Paris 3ème (PA_964) https://live.staticflickr.com/2628/5824565026_75363b8a96_m.jpg,https://www.flickr.com/photos/24406544@N00/5824565026
965,"48.858713, 2.332866",48.858713,2.332866,Paris 7ème (PA_965) https://live.staticflickr.com/3399/5838195443_3a7c8014aa_m.jpg,https://www.flickr.com/photos/24406544@N00/5838195443
966,"48.855577, 2.287806",48.855577,2.287806,Paris 15ème (PA_966) https://live.staticflickr.com/3346/5849963392_4bf89db8a0_m.jpg,https://www.flickr.com/photos/24406544@N00/5849963392
967,"48.854677, 2.289211",48.854677,2.289211,Paris 15ème (PA_967) https://live.staticflickr.com/2513/5844251861_8d91c54d6b_m.jpg,https://www.flickr.com/photos/24406544@N00/5844251861
968,"48.856491, 2.286701",48.856491,2.286701,Paris 16ème (PA_968) https://live.staticflickr.com/6073/6093935281_9209bcaf9b_m.jpg,https://www.flickr.com/photos/24406544@N00/6093935281
972,"48.846255, 2.415457",48.846255,2.415457,Paris 12ème (PA_972) https://live.staticflickr.com/6181/6142458783_930e49524b_m.jpg,https://www.flickr.com/photos/24406544@N00/6142458783
978,"48.863684, 2.346546",48.863684,2.346546,Paris 1er (PA_978) https://live.staticflickr.com/6202/6126849250_a8a14eedb7_m.jpg,https://www.flickr.com/photos/24406544@N00/6126849250
983,"48.866025, 2.406591",48.866025,2.406591,Paris 20ème (PA_983) https://live.staticflickr.com/6033/5915161286_a0ef366dd0_m.jpg,https://www.flickr.com/photos/24406544@N00/5915161286
986,"48.879145, 2.383679",48.879145,2.383679,Paris 19ème (PA_986) https://live.staticflickr.com/6131/5917765719_7ddb4af669_m.jpg,https://www.flickr.com/photos/24406544@N00/5917765719
989,"48.892095, 2.361803",48.892095,2.361803,Paris 18ème (PA_989) https://live.staticflickr.com/6170/6188155601_a3f517e3ca_m.jpg,https://www.flickr.com/photos/24406544@N00/6188155601
991,"48.874199, 2.374227",48.874199,2.374227,Paris 10ème (PA_991) https://live.staticflickr.com/4598/27365208199_49aa499519_m.jpg,https://www.flickr.com/photos/24406544@N00/27365208199
1006,"48.872146, 2.346739",48.872146,2.346739,Paris 9ème (PA_1006) https://live.staticflickr.com/65535/48851660602_0d01e77888_m.jpg,https://www.flickr.com/photos/24406544@N00/48851660602
1009,"48.858475, 2.389247",48.858475,2.389247,Paris 11ème (PA_1009) https://live.staticflickr.com/6231/6217802829_144d35734c_m.jpg,https://www.flickr.com/photos/24406544@N00/6217802829
1010,"48.877198, 2.387874",48.877198,2.387874,Paris 19ème (PA_1010) https://live.staticflickr.com/6167/6264057059_25956b7471_m.jpg,https://www.flickr.com/photos/24406544@N00/6264057059
1012,"48.878412, 2.345173",48.878412,2.345173,Paris 9ème (PA_1012) https://live.staticflickr.com/5075/7176600802_182e8b4d8f_m.jpg,https://www.flickr.com/photos/24406544@N00/7176600802
1014,"48.851571, 2.384741",48.851571,2.384741,Paris 11ème (PA_1014) https://live.staticflickr.com/6232/6311133651_045be9ecbe_m.jpg,https://www.flickr.com/photos/24406544@N00/6311133651
1015,"48.876281, 2.387487",48.876281,2.387487,Paris 19ème (PA_1015) https://live.staticflickr.com/6217/6357066777_29ed0c6f7a_m.jpg,https://www.flickr.com/photos/24406544@N00/6357066777
1016,"48.879011, 2.390255",48.879011,2.390255,Paris 19ème (PA_1016) https://live.staticflickr.com/6100/6362139195_5654993904_m.jpg,https://www.flickr.com/photos/24406544@N00/6362139195
1019,"48.873084, 2.363390",48.873084,2.363390,Paris 10ème (PA_1019) https://live.staticflickr.com/6056/6353526011_cf4dd9537b_m.jpg,https://www.flickr.com/photos/24406544@N00/6353526011
1020,"48.895886, 2.343049",48.895886,2.343049,Paris 18ème (PA_1020) https://live.staticflickr.com/7005/6399618009_1de370d593_m.jpg,https://www.flickr.com/photos/24406544@N00/6399618009
1031,"48.900654, 2.389183",48.900654,2.389183,Paris 19ème (PA_1031) https://live.staticflickr.com/7071/7181314575_7dee88051a_m.jpg,https://www.flickr.com/photos/24406544@N00/7181314575
1035,"48.825736, 2.383375",48.825736,2.383375,Paris 13ème (PA_1035) https://live.staticflickr.com/7488/15720046815_893f4c9d4e_m.jpg,https://www.flickr.com/photos/24406544@N00/15720046815
1036,"48.819436, 2.362040",48.819436,2.362040,Paris 13ème (PA_1036) https://live.staticflickr.com/65535/48640522293_f35db5a813_m.jpg,https://www.flickr.com/photos/24406544@N00/48640522293
1050,"48.883167, 2.349518",48.883167,2.349518,Paris 9ème (PA_1050) https://live.staticflickr.com/65535/49029551888_b52f80b8e5_m.jpg,https://www.flickr.com/photos/24406544@N00/49029551888
1051,"48.855161, 2.339627",48.855161,2.339627,Paris 6ème (PA_1051) https://live.staticflickr.com/7333/9495063140_70ed59b323_m.jpg,https://www.flickr.com/photos/24406544@N00/9495063140
1054,"48.852644, 2.385091",48.852644,2.385091,Paris 11ème (PA_1054) https://live.staticflickr.com/5345/9341764144_6b4004a408_m.jpg,https://www.flickr.com/photos/24406544@N00/9341764144
1057,"48.864808, 2.345513",48.864808,2.345513,Paris 2ème (PA_1057) https://live.staticflickr.com/5468/9380672406_3cd71686e5_m.jpg,https://www.flickr.com/photos/24406544@N00/9380672406
1059,"48.853891, 2.336955",48.853891,2.336955,Paris 6ème (PA_1059) https://live.staticflickr.com/3673/9465169699_7b85727261_m.jpg,https://www.flickr.com/photos/24406544@N00/9465169699
1061,"48.888683, 2.346558",48.888683,2.346558,Paris 18ème (PA_1061) https://live.staticflickr.com/5501/9697329773_d5a9348643_m.jpg,https://www.flickr.com/photos/24406544@N00/9697329773
1068,"48.862950, 2.362197",48.862950,2.362197,Paris 3ème (PA_1068) https://live.staticflickr.com/3714/9731027562_d70740fa2f_m.jpg,https://www.flickr.com/photos/24406544@N00/9731027562
1073,"48.872316, 2.313727",48.872316,2.313727,Paris 8ème (PA_1073) https://live.staticflickr.com/5462/10067899373_83bc0b20f5_m.jpg,https://www.flickr.com/photos/24406544@N00/10067899373
1075,"48.853194, 2.336097",48.853194,2.336097,Paris 6ème (PA_1075) https://live.staticflickr.com/5519/9852837484_35a6c31e90_m.jpg,https://www.flickr.com/photos/24406544@N00/9852837484
1077,"48.885705, 2.334888",48.885705,2.334888,Paris 18ème (PA_1077) https://live.staticflickr.com/5577/15178467012_ca723750a7_m.jpg,https://www.flickr.com/photos/24406544@N00/15178467012
1078,"48.867508, 2.346330",48.867508,2.346330,Paris 2ème (PA_1078) https://live.staticflickr.com/3826/9789380975_c40cd019d3_m.jpg,https://www.flickr.com/photos/24406544@N00/9789380975
1079,"48.854283, 2.377725",48.854283,2.377725,Paris 11ème (PA_1079) https://live.staticflickr.com/2948/15408987982_e107a42524_m.jpg,https://www.flickr.com/photos/24406544@N00/15408987982
1080,"48.867363, 2.319172",48.867363,2.319172,Paris 8ème (PA_1080) https://live.staticflickr.com/3801/10610850515_1ac6c28f84_m.jpg,https://www.flickr.com/photos/24406544@N00/10610850515
1082,"48.848875, 2.378233",48.848875,2.378233,Place d'Aligre (PA_1082) https://live.staticflickr.com/3779/11354249095_975e9815c1_m.jpg,https://www.flickr.com/photos/24406544@N00/11354249095
1083,"48.865763, 2.397619",48.865763,2.397619,Paris 20ème (PA_1083) https://live.staticflickr.com/3716/11349226576_4f7e57f43e_m.jpg,https://www.flickr.com/photos/24406544@N00/11349226576
1086,"48.851036, 2.348005",48.851036,2.348005,Rue des Anglais (PA_1086) https://live.staticflickr.com/3812/11936914335_66b77f8c80_m.jpg,https://www.flickr.com/photos/24406544@N00/11936914335
1087,"48.852777, 2.346488",48.852777,2.346488,Rue de la Huchette (PA_1087) https://live.staticflickr.com/2830/11914662595_081094bf83_m.jpg,https://www.flickr.com/photos/24406544@N00/11914662595
1089,"48.872161, 2.309252",48.872161,2.309252,Paris 8ème (PA_1089) https://live.staticflickr.com/2289/13173118254_ba5ce5dda3_m.jpg,https://www.flickr.com/photos/24406544@N00/13173118254
1090,"48.884247, 2.365275",48.884247,2.365275,Paris 10ème (PA_1090) https://live.staticflickr.com/2923/13901180623_8c602cb899_m.jpg,https://www.flickr.com/photos/24406544@N00/13901180623
1091,"48.882850, 2.371983",48.882850,2.371983,Paris 19ème (PA_1091) https://live.staticflickr.com/3829/13384022453_97f3dfceee_m.jpg,https://www.flickr.com/photos/24406544@N00/13384022453
1094,"48.861819, 2.364416",48.861819,2.364416,Paris 3ème (PA_1094) https://live.staticflickr.com/5325/13831617555_dc8039ac66_m.jpg,https://www.flickr.com/photos/24406544@N00/13831617555
1095,"48.847350, 2.395030",48.847350,2.395030,Paris 12ème (PA_1095) https://live.staticflickr.com/7099/13547542733_0a85d7ce55_m.jpg,https://www.flickr.com/photos/24406544@N00/13547542733
1096,"48.869625, 2.430450",48.869625,2.430450,Bagnolet A3 (PA_1096) https://live.staticflickr.com/5012/13954612054_0b78b0179e_m.jpg,https://www.flickr.com/photos/24406544@N00/13954612054
1098,"48.852516, 2.389308",48.852516,2.389308,Paris 11ème (PA_1098) https://live.staticflickr.com/3912/14652580307_715eefeab7_m.jpg,https://www.flickr.com/photos/24406544@N00/14652580307
1099,"48.868472, 2.388463",48.868472,2.388463,Paris 20ème (PA_1099) https://live.staticflickr.com/5559/14686419515_85072a541e_m.jpg,https://www.flickr.com/photos/24406544@N00/14686419515
1100,"48.865411, 2.336716",48.865411,2.336716,Paris 1èr (PA_1100) https://live.staticflickr.com/3956/15325356527_b14d327058_m.jpg,https://www.flickr.com/photos/24406544@N00/15325356527
1101,"48.869977, 2.311641",48.869977,2.311641,Paris 8ème (PA_1101) https://live.staticflickr.com/3837/15195386706_484f59312c_m.jpg,https://www.flickr.com/photos/24406544@N00/15195386706
1102,"48.859008, 2.362230",48.859008,2.362230,Paris 3ème (PA_1102) https://live.staticflickr.com/2896/14757478381_54cd4abfbf_m.jpg,https://www.flickr.com/photos/24406544@N00/14757478381
1103,"48.829138, 2.353388",48.829138,2.353388,Paris 13ème (PA_1103) https://live.staticflickr.com/2945/15336656556_6e566bebf2_m.jpg,https://www.flickr.com/photos/24406544@N00/15336656556
1105,"48.884569, 2.363444",48.884569,2.363444,Paris 18ème (PA_1105) https://live.staticflickr.com/3888/14764347003_2ece4d2422_m.jpg,https://www.flickr.com/photos/24406544@N00/14764347003
1106,"48.890847, 2.345477",48.890847,2.345477,Paris 18ème (PA_1106) https://live.staticflickr.com/5579/15113976366_59db81d74a_m.jpg,https://www.flickr.com/photos/24406544@N00/15113976366
1107,"48.853244, 2.342650",48.853244,2.342650,Paris 6ème (PA_1107) https://live.staticflickr.com/3861/15201776852_d509894e46_m.jpg,https://www.flickr.com/photos/24406544@N00/15201776852
1108,"48.826850, 2.363736",48.826850,2.363736,Paris 13ème (PA_1108) https://live.staticflickr.com/3848/14775595830_0d63cfaa3a_m.jpg,https://www.flickr.com/photos/24406544@N00/14775595830
1109,"48.823313, 2.365527",48.823313,2.365527,Paris 13ème (PA_1109) https://live.staticflickr.com/5589/14943841346_f64b5f18c3_m.jpg,https://www.flickr.com/photos/24406544@N00/14943841346
1110,"48.845761, 2.413825",48.845761,2.413825,Paris 12ème (PA_1110) https://live.staticflickr.com/3850/14970686458_1da798e8c8_m.jpg,https://www.flickr.com/photos/24406544@N00/14970686458
1111,"48.881675, 2.271325",48.881675,2.271325,Neuilly sur Seine (PA_1111) https://live.staticflickr.com/3873/15028259747_8cb7c8a087_m.jpg,https://www.flickr.com/photos/24406544@N00/15028259747
1112,"48.889847, 2.250200",48.889847,2.250200,Paris La Défense (PA_1112) https://live.staticflickr.com/3839/15024304070_4871ba7c3f_m.jpg,https://www.flickr.com/photos/24406544@N00/15024304070
1114,"48.885108, 2.326877",48.885108,2.326877,Paris 18ème (PA_1114) https://live.staticflickr.com/3887/15383860542_07a4e723e2_m.jpg,https://www.flickr.com/photos/24406544@N00/15383860542
1115,"48.859680, 2.388458",48.859680,2.388458,Paris 11ème (PA_1115) https://live.staticflickr.com/2950/15316235728_714f1dd7b2_m.jpg,https://www.flickr.com/photos/24406544@N00/15316235728
1120,"48.841022, 2.398916",48.841022,2.398916,Paris 12ème (PA_1120) https://live.staticflickr.com/7525/15629413204_e650b8eeb2_m.jpg,https://www.flickr.com/photos/24406544@N00/15629413204
1122,"48.896263, 2.384497",48.896263,2.384497,Paris 19ème (PA_1122) https://live.staticflickr.com/7534/15640916398_c73ae8bc1a_m.jpg,https://www.flickr.com/photos/24406544@N00/15640916398
1128,"48.856816, 2.404730",48.856816,2.404730,Paris 20ème (PA_1128) https://live.staticflickr.com/7517/16037485589_a716753d6c_m.jpg,https://www.flickr.com/photos/24406544@N00/16037485589
1129,"48.847108, 2.374966",48.847108,2.374966,Paris 12ème (PA_1129) https://live.staticflickr.com/7333/16475000221_2b08d90cbd_m.jpg,https://www.flickr.com/photos/24406544@N00/16475000221
1130,"48.844527, 2.372352",48.844527,2.372352,Paris 12ème (PA_1130) https://live.staticflickr.com/7400/15862866064_87ec6df057_m.jpg,https://www.flickr.com/photos/24406544@N00/15862866064
1131,"48.839619, 2.395944",48.839619,2.395944,Paris 12ème (PA_1131) https://live.staticflickr.com/8663/16077691867_3b1da40d83_m.jpg,https://www.flickr.com/photos/24406544@N00/16077691867
1134,"48.827188, 2.367044",48.827188,2.367044,Paris 13ème (PA_1134) https://live.staticflickr.com/8661/16335552839_4efb00ab25_m.jpg,https://www.flickr.com/photos/24406544@N00/16335552839
1135,"48.849236, 2.389502",48.849236,2.389502,Paris 12ème (PA_1135) https://live.staticflickr.com/7432/16281129557_f5e6ea10b0_m.jpg,https://www.flickr.com/photos/24406544@N00/16281129557
1137,"48.895050, 2.409958",48.895050,2.409958,Seine Saint-Denis (PA_1137) https://live.staticflickr.com/7636/16408006593_ca77d48a31_m.jpg,https://www.flickr.com/photos/24406544@N00/16408006593
1140,"48.866361, 2.336080",48.866361,2.336080,Paris 1er (PA_1140) https://live.staticflickr.com/4850/45714750061_9f280a4714_m.jpg,https://www.flickr.com/photos/24406544@N00/45714750061
1141,"48.848436, 2.304252",48.848436,2.304252,Paris 15ème (PA_1141) https://live.staticflickr.com/378/18594071199_2a868786e7_m.jpg,https://www.flickr.com/photos/24406544@N00/18594071199
1147,"48.872954, 2.363981",48.872954,2.363981,Paris 10ème (PA_1147) https://live.staticflickr.com/7912/40076989193_e1949e5af5_m.jpg,https://www.flickr.com/photos/24406544@N00/40076989193
1148,"48.881805, 2.368844",48.881805,2.368844,Point Ephémere (PA_1148) https://live.staticflickr.com/261/19581258962_be34a71b03_m.jpg,https://www.flickr.com/photos/24406544@N00/19581258962
1154,"48.868572, 2.363255",48.868572,2.363255,Paris 10ème (PA_1154) https://live.staticflickr.com/264/19787377714_d92c599050_m.jpg,https://www.flickr.com/photos/24406544@N00/19787377714
1157,"48.863919, 2.354830",48.863919,2.354830,Paris 3ème (PA_1157) https://live.staticflickr.com/304/19609399839_523464f888_m.jpg,https://www.flickr.com/photos/24406544@N00/19609399839
1158,"48.851253, 2.398216",48.851253,2.398216,Paris 11ème (PA_1158) https://live.staticflickr.com/627/20163253313_983cf95788_m.jpg,https://www.flickr.com/photos/24406544@N00/20163253313
1159,"48.878455, 2.298655",48.878455,2.298655,Paris 17ème (PA_1159) https://live.staticflickr.com/5714/20919727373_00ce8388e3_m.jpg,https://www.flickr.com/photos/24406544@N00/20919727373
1161,"48.858597, 2.359022",48.858597,2.359022,Paris 4ème (PA_1161) https://live.staticflickr.com/1632/25794624672_a88b716666_m.jpg,https://www.flickr.com/photos/24406544@N00/25794624672
1164,"48.885144, 2.303611",48.885144,2.303611,Paris 17ème (PA_1164) https://live.staticflickr.com/5706/21685712055_799be81028_m.jpg,https://www.flickr.com/photos/24406544@N00/21685712055
1165,"48.868050, 2.348825",48.868050,2.348825,Paris 2ème (PA_1165) https://live.staticflickr.com/776/22132701482_11eae9b814_m.jpg,https://www.flickr.com/photos/24406544@N00/22132701482
1166,"48.852436, 2.356966",48.852436,2.356966,Paris 4ème (PA_1166) https://live.staticflickr.com/5661/22230416906_a1f0a3442d_m.jpg,https://www.flickr.com/photos/24406544@N00/22230416906
1167,"48.849747, 2.332602",48.849747,2.332602,Paris 6ème (PA_1167) https://live.staticflickr.com/1506/24565256869_705d6fabb7_m.jpg,https://www.flickr.com/photos/24406544@N00/24565256869
1169,"48.898947, 2.359516",48.898947,2.359516,Paris 18ème (PA_1169) https://live.staticflickr.com/1488/23988165671_d1c63a451a_m.jpg,https://www.flickr.com/photos/24406544@N00/23988165671
1172,"48.858822, 2.350622",48.858822,2.350622,Paris 4ème (PA_1172) https://live.staticflickr.com/1461/25663739392_1c8a2b816c_m.jpg,https://www.flickr.com/photos/24406544@N00/25663739392
1173,"48.840058, 2.371102",48.840058,2.371102,Paris 13ème (PA_1173) https://live.staticflickr.com/5824/22119870104_c3aebe0682_m.jpg,https://www.flickr.com/photos/24406544@N00/22119870104
1174,"48.836986, 2.391163",48.836986,2.391163,Paris 12ème (PA_1174) https://live.staticflickr.com/709/21595239182_f1116418c3_m.jpg,https://www.flickr.com/photos/24406544@N00/21595239182
1175,"48.877391, 2.342375",48.877391,2.342375,Paris 9ème (PA_1175) https://live.staticflickr.com/5769/22944576295_b1e0caf769_m.jpg,https://www.flickr.com/photos/24406544@N00/22944576295
1177,"48.868788, 2.340211",48.868788,2.340211,Paris 2ème (PA_1177) https://live.staticflickr.com/1524/25904335486_7d1b3b6fc4_m.jpg,https://www.flickr.com/photos/24406544@N00/25904335486
1178,"48.821572, 2.368825",48.821572,2.368825,Paris 13ème (PA_1178) https://live.staticflickr.com/7353/27488983233_7e77947f0d_m.jpg,https://www.flickr.com/photos/24406544@N00/27488983233
1179,"48.830772, 2.356661",48.830772,2.356661,Paris 13ème (PA_1179) https://live.staticflickr.com/1568/26150368881_277203a0cb_m.jpg,https://www.flickr.com/photos/24406544@N00/26150368881
1180,"48.835097, 2.353336",48.835097,2.353336,Paris 13ème (PA_1180) https://live.staticflickr.com/7300/28122820741_721570a549_m.jpg,https://www.flickr.com/photos/24406544@N00/28122820741
1182,"48.880833, 2.290063",48.880833,2.290063,Paris 17ème (PA_1182) https://live.staticflickr.com/1578/26219878781_358a6f1778_m.jpg,https://www.flickr.com/photos/24406544@N00/26219878781
1183,"48.845583, 2.402958",48.845583,2.402958,Paris (PA_1183) https://live.staticflickr.com/1703/26396428592_bcd8ce01bb_m.jpg,https://www.flickr.com/photos/24406544@N00/26396428592
1185,"48.853425, 2.379375",48.853425,2.379375,Paris 11ème (PA_1185) https://live.staticflickr.com/1649/26751027085_d87808c13b_m.jpg,https://www.flickr.com/photos/24406544@N00/26751027085
1186,"48.853822, 2.399708",48.853822,2.399708,Paris 20ème (PA_1186) https://live.staticflickr.com/1473/26427632372_ef093e42a4_m.jpg,https://www.flickr.com/photos/24406544@N00/26427632372
1187,"48.882080, 2.402700",48.882080,2.402700,Le Pré-Saint-Gervais  (PA_1187) https://live.staticflickr.com/8627/28185606000_06938c47cb_m.jpg,https://www.flickr.com/photos/24406544@N00/28185606000
1188,"48.842477, 2.334858",48.842477,2.334858,Paris 6ème (PA_1188) https://live.staticflickr.com/8775/28593959975_4dbf47ae38_m.jpg,https://www.flickr.com/photos/24406544@N00/28593959975
1189,"48.844155, 2.350397",48.844155,2.350397,Paris 5ème (PA_1189) https://live.staticflickr.com/8148/29085214815_737b1594f6_m.jpg,https://www.flickr.com/photos/24406544@N00/29085214815
1190,"48.852586, 2.334413",48.852586,2.334413,Paris 6ème (PA_1190) https://live.staticflickr.com/7142/26843141362_4f56f4fe94_m.jpg,https://www.flickr.com/photos/24406544@N00/26843141362
1191,"48.815116, 2.355677",48.815116,2.355677,Île-de-France 94 (PA_1191) https://live.staticflickr.com/7304/28046345311_3912f43294_m.jpg,https://www.flickr.com/photos/24406544@N00/28046345311
1192,"48.815116, 2.355677",48.815116,2.355677,Île-de-France 94 (PA_1192) https://live.staticflickr.com/7438/28046345251_167b49b219_m.jpg,https://www.flickr.com/photos/24406544@N00/28046345251
1193,"48.815116, 2.355677",48.815116,2.355677,Île-de-France 94 (PA_1193) https://live.staticflickr.com/7315/28090290186_6a3deaed8a_m.jpg,https://www.flickr.com/photos/24406544@N00/28090290186
1194,"48.815127, 2.355683",48.815127,2.355683,Île-de-France 94 (PA_1194) https://live.staticflickr.com/7303/28090290076_1e2700d434_m.jpg,https://www.flickr.com/photos/24406544@N00/28090290076
1195,"48.815116, 2.355677",48.815116,2.355677,Île-de-France 94 (PA_1195) https://live.staticflickr.com/7304/28090289986_2869287137_m.jpg,https://www.flickr.com/photos/24406544@N00/28090289986
1196,"48.841094, 2.313305",48.841094,2.313305,Paris 15ème (PA_1196) https://live.staticflickr.com/8436/28274108050_c1be668f2e_m.jpg,https://www.flickr.com/photos/24406544@N00/28274108050
1197,"48.843916, 2.322486",48.843916,2.322486,Paris 15ème (PA_1197) https://live.staticflickr.com/8091/27966258544_b0440080ff_m.jpg,https://www.flickr.com/photos/24406544@N00/27966258544
1198,"48.842258, 2.329691",48.842258,2.329691,Paris 6ème (PA_1198) https://live.staticflickr.com/8452/29124554170_42a0f4f195_m.jpg,https://www.flickr.com/photos/24406544@N00/29124554170
1199,"48.821513, 2.352486",48.821513,2.352486,Paris 13ème (PA_1199) https://live.staticflickr.com/8705/28035322723_91f00327da_m.jpg,https://www.flickr.com/photos/24406544@N00/28035322723
1201,"48.864408, 2.373311",48.864408,2.373311,Paris 11ème (PA_1201) https://live.staticflickr.com/8340/29379468861_683400ce94_m.jpg,https://www.flickr.com/photos/24406544@N00/29379468861
1202,"48.883269, 2.301825",48.883269,2.301825,Paris 17ème (PA_1202) https://live.staticflickr.com/8458/29184453035_4ca9681196_m.jpg,https://www.flickr.com/photos/24406544@N00/29184453035
1203,"48.847852, 2.340886",48.847852,2.340886,Paris 6ème (PA_1203) https://live.staticflickr.com/8390/28996844821_7d1ca85524_m.jpg,https://www.flickr.com/photos/24406544@N00/28996844821
1204,"48.852266, 2.403200",48.852266,2.403200,Paris 20ème (PA_1204) https://live.staticflickr.com/8267/29154309155_8359ac3743_m.jpg,https://www.flickr.com/photos/24406544@N00/29154309155
1205,"48.835430, 2.368830",48.835430,2.368830,Paris 13ème (PA_1205) https://live.staticflickr.com/8112/29039442211_b0c1350349_m.jpg,https://www.flickr.com/photos/24406544@N00/29039442211
1207,"48.873125, 2.361358",48.873125,2.361358,Paris 10ème (PA_1207) https://live.staticflickr.com/5825/30466439561_99ea0904e0_m.jpg,https://www.flickr.com/photos/24406544@N00/30466439561
1210,"48.868850, 2.337772",48.868850,2.337772,Paris 2ème (PA_1210) https://live.staticflickr.com/8358/29202259974_c8d3c04294_m.jpg,https://www.flickr.com/photos/24406544@N00/29202259974
1212,"48.871383, 2.360783",48.871383,2.360783,Paris 10ème (PA_1212) https://live.staticflickr.com/7546/29398369583_e11eab69af_m.jpg,https://www.flickr.com/photos/24406544@N00/29398369583
1213,"48.860869, 2.348583",48.860869,2.348583,Paris 1èr (PA_1213) https://live.staticflickr.com/8783/30123540715_abb70a7291_m.jpg,https://www.flickr.com/photos/24406544@N00/30123540715
1214,"48.842972, 2.401822",48.842972,2.401822,Paris 12Ã¨me (PA_1214) https://live.staticflickr.com/5692/30239427551_7b15892b17_m.jpg,https://www.flickr.com/photos/24406544@N00/30239427551
1215,"48.867552, 2.333300",48.867552,2.333300,Paris 2ème (PA_1215) https://live.staticflickr.com/5798/30604158776_3124de6842_m.jpg,https://www.flickr.com/photos/24406544@N00/30604158776
1217,"48.863900, 2.320252",48.863900,2.320252,Paris 1èr (PA_1217) https://live.staticflickr.com/5682/30317020730_ee96119b12_m.jpg,https://www.flickr.com/photos/24406544@N00/30317020730
1218,"48.890663, 2.376541",48.890663,2.376541,Paris 19ème (PA_1218) https://live.staticflickr.com/5677/29960237172_aacdc63475_m.jpg,https://www.flickr.com/photos/24406544@N00/29960237172
1219,"48.875577, 2.398980",48.875577,2.398980,Paris 19ème (PA_1219) https://live.staticflickr.com/5325/30715041795_7ec5560dff_m.jpg,https://www.flickr.com/photos/24406544@N00/30715041795
1220,"48.871694, 2.352566",48.871694,2.352566,Paris 10ème (PA_1220) https://live.staticflickr.com/8269/30133601726_c65b04d355_m.jpg,https://www.flickr.com/photos/24406544@N00/30133601726
1222,"48.863933, 2.380905",48.863933,2.380905,Paris 11ème (PA_1222) https://live.staticflickr.com/8565/30578198755_85b8974b30_m.jpg,https://www.flickr.com/photos/24406544@N00/30578198755
1223,"48.857858, 2.277891",48.857858,2.277891,Paris 16ème (PA_1223) https://live.staticflickr.com/5638/30729446862_a1382dcc39_m.jpg,https://www.flickr.com/photos/24406544@N00/30729446862
1224,"48.844866, 2.405625",48.844866,2.405625,Paris 12ème (PA_1224) https://live.staticflickr.com/5715/30432263920_32943fa024_m.jpg,https://www.flickr.com/photos/24406544@N00/30432263920
1225,"48.846900, 2.408516",48.846900,2.408516,Paris 12ème (PA_1225) https://live.staticflickr.com/5715/30803112852_b4ab3de4c5_m.jpg,https://www.flickr.com/photos/24406544@N00/30803112852
1228,"48.834491, 2.357366",48.834491,2.357366,Paris 5ème (PA_1228) https://live.staticflickr.com/5340/31214940966_95004a9a9b_m.jpg,https://www.flickr.com/photos/24406544@N00/31214940966
1229,"48.876755, 2.339419",48.876755,2.339419,Paris 9ème (PA_1229) https://live.staticflickr.com/5341/31333743156_a5fc42ebec_m.jpg,https://www.flickr.com/photos/24406544@N00/31333743156
1230,"48.873325, 2.333888",48.873325,2.333888,Paris 9ème (PA_1230) https://live.staticflickr.com/5793/30628374433_2733f1d886_m.jpg,https://www.flickr.com/photos/24406544@N00/30628374433
1231,"48.888383, 2.392097",48.888383,2.392097,Paris 19ème (PA_1231) https://live.staticflickr.com/5673/31117361291_266609cfb0_m.jpg,https://www.flickr.com/photos/24406544@N00/31117361291
1232,"48.895438, 2.346019",48.895438,2.346019,Paris 18ème (PA_1232) https://live.staticflickr.com/4167/33904364730_2a11944932_m.jpg,https://www.flickr.com/photos/24406544@N00/33904364730
1235,"48.840425, 2.345944",48.840425,2.345944,Paris 5ème (PA_1235) https://live.staticflickr.com/598/31828209652_f20fe509e2_m.jpg,https://www.flickr.com/photos/24406544@N00/31828209652
1236,"48.840433, 2.346141",48.840433,2.346141,Paris 5ème (PA_1236) https://live.staticflickr.com/371/31859908261_8a2f156588_m.jpg,https://www.flickr.com/photos/24406544@N00/31859908261
1237,"48.888419, 2.392408",48.888419,2.392408,Paris 19ème (PA_1237) https://live.staticflickr.com/2903/34064102311_a2b3992738_m.jpg,https://www.flickr.com/photos/24406544@N00/34064102311
1240,"48.833486, 2.363033",48.833486,2.363033,Paris 13ème (PA_1240) https://live.staticflickr.com/684/31743371316_fa9bfb8ccc_m.jpg,https://www.flickr.com/photos/24406544@N00/31743371316
1241,"48.849583, 2.355836",48.849583,2.355836,Paris 5ème (PA_1241) https://live.staticflickr.com/5531/30721643863_16f0bfcc3e_m.jpg,https://www.flickr.com/photos/24406544@N00/30721643863
1243,"48.859377, 2.388833",48.859377,2.388833,Paris 11ème (PA_1243) https://live.staticflickr.com/453/32687674445_afba775e9e_m.jpg,https://www.flickr.com/photos/24406544@N00/32687674445
1244,"48.862655, 2.367483",48.862655,2.367483,Paris 11ème (PA_1244) https://live.staticflickr.com/134/31647588275_7f2c337f66_m.jpg,https://www.flickr.com/photos/24406544@N00/31647588275
1245,"48.850147, 2.355272",48.850147,2.355272,Paris 5ème (PA_1245) https://live.staticflickr.com/554/31455617910_65ecb740c6_m.jpg,https://www.flickr.com/photos/24406544@N00/31455617910
1247,"48.881208, 2.402466",48.881208,2.402466,Paris 19ème (PA_1247) https://live.staticflickr.com/2899/33370963103_68d39165a9_m.jpg,https://www.flickr.com/photos/24406544@N00/33370963103
1248,"48.864111, 2.370491",48.864111,2.370491,Paris 11ème (PA_1248) https://live.staticflickr.com/538/31784157154_6d37c1c6c9_m.jpg,https://www.flickr.com/photos/24406544@N00/31784157154
1249,"48.857486, 2.354416",48.857486,2.354416,Paris 4ème (PA_1249) https://live.staticflickr.com/593/31571925291_4c350da7b8_m.jpg,https://www.flickr.com/photos/24406544@N00/31571925291
1251,"48.879405, 2.291644",48.879405,2.291644,Paris 17ème (PA_1251) https://live.staticflickr.com/4188/34101172640_e7a34db594_m.jpg,https://www.flickr.com/photos/24406544@N00/34101172640
1252,"48.866327, 2.286363",48.866327,2.286363,Paris 16ème (PA_1252) https://live.staticflickr.com/300/31580392604_53f30e78b1_m.jpg,https://www.flickr.com/photos/24406544@N00/31580392604
1255,"48.866569, 2.340683",48.866569,2.340683,Paris 2ème (PA_1255) https://live.staticflickr.com/477/32626639482_5ed6625268_m.jpg,https://www.flickr.com/photos/24406544@N00/32626639482
1257,"48.864608, 2.300816",48.864608,2.300816,Paris 16ème (PA_1257) https://live.staticflickr.com/321/32388035605_557593b1dc_m.jpg,https://www.flickr.com/photos/24406544@N00/32388035605
1259,"48.832845, 2.493091",48.832845,2.493091,Nogent-sur-Marne (PA_1259) https://live.staticflickr.com/4533/26812322489_5c740798d5_m.jpg,https://www.flickr.com/photos/24406544@N00/26812322489
1260,"48.860722, 2.340891",48.860722,2.340891,Paris 1er (PA_1260) https://live.staticflickr.com/2927/33631564350_12dea63f14_m.jpg,https://www.flickr.com/photos/24406544@N00/33631564350
1261,"48.838338, 2.388952",48.838338,2.388952,Paris 12ème (PA_1261) https://live.staticflickr.com/2816/33888091632_507b4f20f1_m.jpg,https://www.flickr.com/photos/24406544@N00/33888091632
1262,"48.863491, 2.340383",48.863491,2.340383,Paris 1èr (PA_1262) https://live.staticflickr.com/2812/33688944980_efd54597f0_m.jpg,https://www.flickr.com/photos/24406544@N00/33688944980
1263,"48.858441, 2.342258",48.858441,2.342258,Paris 1èr (PA_1263) https://live.staticflickr.com/2882/33996371056_a2a30714f0_m.jpg,https://www.flickr.com/photos/24406544@N00/33996371056
1264,"48.860122, 2.342122",48.860122,2.342122,Paris 1èr (PA_1264) https://live.staticflickr.com/4201/34382859680_da523249f5_m.jpg,https://www.flickr.com/photos/24406544@N00/34382859680
1266,"48.866666, 2.358019",48.866666,2.358019,Paris 3ème (PA_1266) https://live.staticflickr.com/3711/32577910943_9e16b9e12f_m.jpg,https://www.flickr.com/photos/24406544@N00/32577910943
1268,"48.858333, 2.342741",48.858333,2.342741,Paris 1er (PA_1268) https://live.staticflickr.com/3692/33467303436_1964dfd4bd_m.jpg,https://www.flickr.com/photos/24406544@N00/33467303436
1269,"48.866247, 2.335547",48.866247,2.335547,Paris 1er (PA_1269) https://live.staticflickr.com/2847/33287600303_c2f3fa45c3_m.jpg,https://www.flickr.com/photos/24406544@N00/33287600303
1270,"48.886477, 2.374736",48.886477,2.374736,Paris 19ème (PA_1270) https://live.staticflickr.com/4157/33738136544_94b8a2efc8_m.jpg,https://www.flickr.com/photos/24406544@N00/33738136544
1271,"48.836178, 2.483875",48.836178,2.483875,Nogent-sur-Marne (PA_1271) https://live.staticflickr.com/4563/37714042315_c3f0b4e788_m.jpg,https://www.flickr.com/photos/24406544@N00/37714042315
1272,"48.835480, 2.302811",48.835480,2.302811,Paris 15ème (PA_1272) https://live.staticflickr.com/4182/34403705326_00df3e6706_m.jpg,https://www.flickr.com/photos/24406544@N00/34403705326
1274,"48.834855, 2.284038",48.834855,2.284038,Paris 15ème (PA_1274) https://live.staticflickr.com/4704/25790269147_72f0cd9512_m.jpg,https://www.flickr.com/photos/24406544@N00/25790269147
1275,"48.882630, 2.343888",48.882630,2.343888,Paris 9ème (PA_1275) https://live.staticflickr.com/4408/36516711345_6519b7698c_m.jpg,https://www.flickr.com/photos/24406544@N00/36516711345
1276,"48.886697, 2.340627",48.886697,2.340627,Paris 18ème (PA_1276) https://live.staticflickr.com/4219/34129383663_cf2af2c9d4_m.jpg,https://www.flickr.com/photos/24406544@N00/34129383663
1277,"48.866436, 2.372833",48.866436,2.372833,Paris 11ème (PA_1277) https://live.staticflickr.com/4211/35844671226_e06f39e27c_m.jpg,https://www.flickr.com/photos/24406544@N00/35844671226
1278,"48.874300, 2.331230",48.874300,2.331230,Paris 9ème (PA_1278) https://live.staticflickr.com/4295/35566788660_8fc7e74348_m.jpg,https://www.flickr.com/photos/24406544@N00/35566788660
1279,"48.828766, 2.299638",48.828766,2.299638,Paris 15ème (PA_1279) https://live.staticflickr.com/4780/40804625601_edc96e6879_m.jpg,https://www.flickr.com/photos/24406544@N00/40804625601
1280,"48.882264, 2.315508",48.882264,2.315508,Paris 17ème (PA_1280) https://live.staticflickr.com/4341/36616090735_52b1b510ec_m.jpg,https://www.flickr.com/photos/24406544@N00/36616090735
1281,"48.865450, 2.360277",48.865450,2.360277,Paris 3ème (PA_1281) https://live.staticflickr.com/4286/35078442355_726cb86fc1_m.jpg,https://www.flickr.com/photos/24406544@N00/35078442355
1283,"48.859663, 2.345902",48.859663,2.345902,Paris 1èr (PA_1283) https://live.staticflickr.com/809/26144031647_d798b90590_m.jpg,https://www.flickr.com/photos/24406544@N00/26144031647
1284,"48.894179, 2.304950",48.894179,2.304950,Paris 17ème (PA_1284) https://live.staticflickr.com/4373/37191826245_1e38b4e61b_m.jpg,https://www.flickr.com/photos/24406544@N00/37191826245
1288,"48.884084, 2.371534",48.884084,2.371534,Paris 19ème (PA_1288) https://live.staticflickr.com/4675/27859875979_cca5450bb1_m.jpg,https://www.flickr.com/photos/24406544@N00/27859875979
1289,"48.864486, 2.300866",48.864486,2.300866,Paris 16ème (PA_1289) https://live.staticflickr.com/4688/38748061114_feea56df89_m.jpg,https://www.flickr.com/photos/24406544@N00/38748061114
1290,"48.864486, 2.300866",48.864486,2.300866,Paris 16ème (PA_1290) https://live.staticflickr.com/4643/39457502431_a35a64f718_m.jpg,https://www.flickr.com/photos/24406544@N00/39457502431
1291,"48.859216, 2.439619",48.859216,2.439619,Montreuil (PA_1291) https://live.staticflickr.com/65535/49317813108_c0157148b4_m.jpg,https://www.flickr.com/photos/24406544@N00/49317813108
1293,"48.836228, 2.358605",48.836228,2.358605,Paris 13ème (PA_1293) https://live.staticflickr.com/4723/39618937741_29978ea1bb_m.jpg,https://www.flickr.com/photos/24406544@N00/39618937741
1294,"48.872463, 2.313855",48.872463,2.313855,Paris 8ème (PA_1294) https://live.staticflickr.com/4588/39562736251_a87458035c_m.jpg,https://www.flickr.com/photos/24406544@N00/39562736251
1297,"48.844454, 2.390127",48.844454,2.390127,Paris 12ème (PA_1297) https://live.staticflickr.com/4903/44000289380_4901d77560_m.jpg,https://www.flickr.com/photos/24406544@N00/44000289380
1298,"48.833669, 2.243044",48.833669,2.243044,Boulogne-Billancourt (PA_1298) https://live.staticflickr.com/794/40831653061_05c2dc526e_m.jpg,https://www.flickr.com/photos/24406544@N00/40831653061
1299,"48.854219, 2.338872",48.854219,2.338872,Paris 6ème (PA_1299) https://live.staticflickr.com/4778/25736322587_00c1348649_m.jpg,https://www.flickr.com/photos/24406544@N00/25736322587
1301,"48.856136, 2.382508",48.856136,2.382508,Paris 11ème (PA_1301) https://live.staticflickr.com/4616/40520356432_ef390b8439_m.jpg,https://www.flickr.com/photos/24406544@N00/40520356432
1303,"48.860042, 2.366534",48.860042,2.366534,Paris 3ème (PA_1303) https://live.staticflickr.com/4656/25877297498_eb75b60832_m.jpg,https://www.flickr.com/photos/24406544@N00/25877297498
1305,"48.847900, 2.350859",48.847900,2.350859,Paris 5ème (PA_1305) https://live.staticflickr.com/4669/38869570735_2c22678e14_m.jpg,https://www.flickr.com/photos/24406544@N00/38869570735
1306,"48.819997, 2.310572",48.819997,2.310572,Malakoff (PA_1306) https://live.staticflickr.com/65535/48417628037_d33c1c88eb_m.jpg,https://www.flickr.com/photos/24406544@N00/48417628037
1307,"48.836527, 2.379708",48.836527,2.379708,Paris 12ème (PA_1307) https://live.staticflickr.com/4791/40696786621_0313c3ac30_m.jpg,https://www.flickr.com/photos/24406544@N00/40696786621
1308,"48.833594, 2.244000",48.833594,2.244000,Boulogne-Billancourt (PA_1308) https://live.staticflickr.com/4778/39038446320_ace71101fa_m.jpg,https://www.flickr.com/photos/24406544@N00/39038446320
1309,"48.846986, 2.274516",48.846986,2.274516,Pont Mirabeau (PA_1309) https://live.staticflickr.com/4778/39038446470_e162cb9ca8_m.jpg,https://www.flickr.com/photos/24406544@N00/39038446470
1310,"48.872913, 2.316041",48.872913,2.316041,Paris 8ème (PA_1310) https://live.staticflickr.com/801/40992855632_d5db687985_m.jpg,https://www.flickr.com/photos/24406544@N00/40992855632
1311,"48.860176, 2.307751",48.860176,2.307751,Paris 7ème (PA_1311) https://live.staticflickr.com/808/39156671780_470285630a_m.jpg,https://www.flickr.com/photos/24406544@N00/39156671780
1312,"48.858083, 2.309280",48.858083,2.309280,Paris 7ème (PA_1312) https://live.staticflickr.com/4653/26699684168_cb1259667a_m.jpg,https://www.flickr.com/photos/24406544@N00/26699684168
1313,"48.892536, 2.341627",48.892536,2.341627,Paris 18ème (PA_1313) https://live.staticflickr.com/866/41001707232_ec4d57e6d0_m.jpg,https://www.flickr.com/photos/24406544@N00/41001707232
1314,"48.839800, 2.349850",48.839800,2.349850,Paris 5ème (PA_1314) https://live.staticflickr.com/4794/40015670495_69dfbc566d_m.jpg,https://www.flickr.com/photos/24406544@N00/40015670495
1315,"48.823450, 2.325366",48.823450,2.325366,Paris 14ème (PA_1315) https://live.staticflickr.com/4752/40598673622_6f0bfe88a5_m.jpg,https://www.flickr.com/photos/24406544@N00/40598673622
1316,"48.824783, 2.362327",48.824783,2.362327,Paris 13ème (PA_1316) https://live.staticflickr.com/4771/38905773970_76ce3717ea_m.jpg,https://www.flickr.com/photos/24406544@N00/38905773970
1317,"48.853430, 2.342458",48.853430,2.342458,Paris 6ème (PA_1317) https://live.staticflickr.com/4632/40621712901_8d76e95e81_m.jpg,https://www.flickr.com/photos/24406544@N00/40621712901
1318,"48.873219, 2.353069",48.873219,2.353069,Paris 10ème (PA_1318) https://live.staticflickr.com/812/39429650420_8b36eb65d5_m.jpg,https://www.flickr.com/photos/24406544@N00/39429650420
1319,"48.878300, 2.342625",48.878300,2.342625,Paris 9ème (PA_1319) https://live.staticflickr.com/870/26225440127_28b71f3963_m.jpg,https://www.flickr.com/photos/24406544@N00/26225440127
1321,"48.876993, 2.348735",48.876993,2.348735,Paris 9ème (PA_1321) https://live.staticflickr.com/65535/48896805777_53c05f0e9c_m.jpg,https://www.flickr.com/photos/24406544@N00/48896805777
1322,"48.875130, 2.340872",48.875130,2.340872,Paris 9ème (PA_1322) https://live.staticflickr.com/1930/29949661127_c2a520ff77_m.jpg,https://www.flickr.com/photos/24406544@N00/29949661127
1324,"48.874630, 2.354344",48.874630,2.354344,Paris 10ème (PA_1324) https://live.staticflickr.com/924/41615040312_e6dd7749a0_m.jpg,https://www.flickr.com/photos/24406544@N00/41615040312
1325,"48.875700, 2.349100",48.875700,2.349100,Paris 10ème (PA_1325) https://live.staticflickr.com/826/40793717175_1bde87760a_m.jpg,https://www.flickr.com/photos/24406544@N00/40793717175
1326,"48.877113, 2.348177",48.877113,2.348177,Paris 9ème (PA_1326) https://live.staticflickr.com/1925/44150530664_1ec20a8b8b_m.jpg,https://www.flickr.com/photos/24406544@N00/44150530664
1327,"48.876824, 2.351235",48.876824,2.351235,Paris 10ème (PA_1327) https://live.staticflickr.com/1879/44787149821_ecab8eaedc_m.jpg,https://www.flickr.com/photos/24406544@N00/44787149821
1328,"48.875097, 2.351755",48.875097,2.351755,Paris 10ème (PA_1328) https://live.staticflickr.com/965/40969897834_ee8f827487_m.jpg,https://www.flickr.com/photos/24406544@N00/40969897834
1329,"48.875886, 2.347738",48.875886,2.347738,Paris 9ème (PA_1329) https://live.staticflickr.com/953/41723980511_1468738dc7_m.jpg,https://www.flickr.com/photos/24406544@N00/41723980511
1330,"48.836222, 2.354963",48.836222,2.354963,Paris 13ème (PA_1330) https://live.staticflickr.com/981/41263379124_47db692cbb_m.jpg,https://www.flickr.com/photos/24406544@N00/41263379124
1331,"48.826983, 2.354496",48.826983,2.354496,Paris 13ème (PA_1331) https://live.staticflickr.com/4893/45801855322_b7ece01546_m.jpg,https://www.flickr.com/photos/24406544@N00/45801855322
1332,"48.847547, 2.353091",48.847547,2.353091,Paris 5ème (PA_1332) https://live.staticflickr.com/1969/44915115361_c78ce7bf59_m.jpg,https://www.flickr.com/photos/24406544@N00/44915115361
1333,"48.868977, 2.331064",48.868977,2.331064,Paris 2ème (PA_1333) https://live.staticflickr.com/1974/45464182712_ded34825ac_m.jpg,https://www.flickr.com/photos/24406544@N00/45464182712
1334,"48.868427, 2.330120",48.868427,2.330120,Paris 1er (PA_1334) https://live.staticflickr.com/1943/30560991937_7d5f3e0a37_m.jpg,https://www.flickr.com/photos/24406544@N00/30560991937
1335,"48.837562, 2.255544",48.837562,2.255544,Paris 16ème (PA_1335) https://live.staticflickr.com/1980/43323730680_00ca669d7e_m.jpg,https://www.flickr.com/photos/24406544@N00/43323730680
1336,"48.850484, 2.388324",48.850484,2.388324,Paris 11ème (PA_1336) https://live.staticflickr.com/1958/31551274058_86508abc61_m.jpg,https://www.flickr.com/photos/24406544@N00/31551274058
1338,"48.843086, 2.349530",48.843086,2.349530,Paris 5ème (PA_1338) https://live.staticflickr.com/894/41335582891_59b4fbd9b9_m.jpg,https://www.flickr.com/photos/24406544@N00/41335582891
1341,"48.847645, 2.431025",48.847645,2.431025,Vincennes (PA_1341) https://live.staticflickr.com/1960/30294777347_862ee688e9_m.jpg,https://www.flickr.com/photos/24406544@N00/30294777347
1342,"48.854042, 2.303802",48.854042,2.303802,Paris 7ème (PA_1342) https://live.staticflickr.com/1962/31793085138_620569f4f1_m.jpg,https://www.flickr.com/photos/24406544@N00/31793085138
1343,"48.856449, 2.309660",48.856449,2.309660,Paris 7ème (PA_1343) https://live.staticflickr.com/4846/30745320137_4a3c3419cc_m.jpg,https://www.flickr.com/photos/24406544@N00/30745320137
1344,"48.854313, 2.350100",48.854313,2.350100,Paris 4ème (PA_1344) https://live.staticflickr.com/952/41280490774_62382edfec_m.jpg,https://www.flickr.com/photos/24406544@N00/41280490774
1345,"48.821078, 2.416788",48.821078,2.416788,Val-de-Marne (PA_1345) https://live.staticflickr.com/4848/44874457345_cc0571c7d0_m.jpg,https://www.flickr.com/photos/24406544@N00/44874457345
1346,"48.849113, 2.367477",48.849113,2.367477,Paris 12ème (PA_1346) https://live.staticflickr.com/959/40073747060_791d01535f_m.jpg,https://www.flickr.com/photos/24406544@N00/40073747060
1347,"48.866983, 2.361991",48.866983,2.361991,Paris 3ème (PA_1347) https://live.staticflickr.com/836/43030436161_0d11f29121_m.jpg,https://www.flickr.com/photos/24406544@N00/43030436161
1348,"48.818273, 2.424244",48.818273,2.424244,Val-de-Marne (PA_1348) https://live.staticflickr.com/4835/43953560380_b3060ce622_m.jpg,https://www.flickr.com/photos/24406544@N00/43953560380
1349,"48.830373, 2.334197",48.830373,2.334197,Paris 14ème (PA_1349) https://live.staticflickr.com/1914/44390094794_2aa0edcc3d_m.jpg,https://www.flickr.com/photos/24406544@N00/44390094794
1350,"48.847278, 2.317857",48.847278,2.317857,Paris 6ème (PA_1350) https://live.staticflickr.com/4908/45246997194_38f955d20e_m.jpg,https://www.flickr.com/photos/24406544@N00/45246997194
1351,"48.841849, 2.325357",48.841849,2.325357,Paris 14ème (PA_1351) https://live.staticflickr.com/4912/44909451015_d16e37944a_m.jpg,https://www.flickr.com/photos/24406544@N00/44909451015
1352,"48.825740, 2.360140",48.825740,2.360140,Paris 13ème (PA_1352) https://live.staticflickr.com/1953/45817779232_cd3ccda550_m.jpg,https://www.flickr.com/photos/24406544@N00/45817779232
1353,"48.832866, 2.354958",48.832866,2.354958,Paris 13ème (PA_1353) https://live.staticflickr.com/4883/45912150731_f0247ec0be_m.jpg,https://www.flickr.com/photos/24406544@N00/45912150731
1356,"48.848246, 2.392787",48.848246,2.392787,Paris 12ème (PA_1356) https://live.staticflickr.com/4872/46005554041_72d32e037f_m.jpg,https://www.flickr.com/photos/24406544@N00/46005554041
1357,"48.879759, 2.323983",48.879759,2.323983,Paris 8ème (PA_1357) https://live.staticflickr.com/1943/30598963377_ef200985ec_m.jpg,https://www.flickr.com/photos/24406544@N00/30598963377
1358,"48.842675, 2.342158",48.842675,2.342158,Paris 5ème (PA_1358) https://live.staticflickr.com/1972/44946278072_178d9c9803_m.jpg,https://www.flickr.com/photos/24406544@N00/44946278072
1359,"48.848888, 2.341954",48.848888,2.341954,Paris Sorbonne (PA_1359) https://live.staticflickr.com/1939/31132594938_9049b9190f_m.jpg,https://www.flickr.com/photos/24406544@N00/31132594938
1360,"48.846099, 2.343016",48.846099,2.343016,Paris 5ème (PA_1360) https://live.staticflickr.com/1964/44255203424_d03516186f_m.jpg,https://www.flickr.com/photos/24406544@N00/44255203424
1361,"48.859611, 2.370815",48.859611,2.370815,Paris 11ème (PA_1361) https://live.staticflickr.com/1911/30653765787_ef6b87f2ed_m.jpg,https://www.flickr.com/photos/24406544@N00/30653765787
1363,"48.886666, 2.377488",48.886666,2.377488,Paris 19ème (PA_1363) https://live.staticflickr.com/4837/31087521787_4eb4f8aabb_m.jpg,https://www.flickr.com/photos/24406544@N00/31087521787
1364,"48.855164, 2.419213",48.855164,2.419213,Montreuil (PA_1364) https://live.staticflickr.com/1948/45236183732_b418ab4919_m.jpg,https://www.flickr.com/photos/24406544@N00/45236183732
1366,"48.851373, 2.376276",48.851373,2.376276,Paris 11ème (PA_1366) https://live.staticflickr.com/4873/32120567398_f6d1027fb2_m.jpg,https://www.flickr.com/photos/24406544@N00/32120567398
1367,"48.886765, 2.295895",48.886765,2.295895,Paris 17ème (PA_1367) https://live.staticflickr.com/65535/48438281687_5afd3b7214_m.jpg,https://www.flickr.com/photos/24406544@N00/48438281687
1370,"48.841552, 2.353702",48.841552,2.353702,Paris 5ème (PA_1370) https://live.staticflickr.com/7850/46613045574_e8c216245b_m.jpg,https://www.flickr.com/photos/24406544@N00/46613045574
1371,"48.827908, 2.342437",48.827908,2.342437,Paris 13ème (PA_1371) https://live.staticflickr.com/65535/48408111576_d731b7e019_m.jpg,https://www.flickr.com/photos/24406544@N00/48408111576
1372,"48.895802, 2.346513",48.895802,2.346513,Paris 18ème (PA_1372) https://live.staticflickr.com/7843/46139737375_fa0593e0bc_m.jpg,https://www.flickr.com/photos/24406544@N00/46139737375
1373,"48.865187, 2.347340",48.865187,2.347340,Paris 2ème (PA_1373) https://live.staticflickr.com/65535/48430009882_3c3d07c204_m.jpg,https://www.flickr.com/photos/24406544@N00/48430009882
1374,"48.857741, 2.368540",48.857741,2.368540,Paris 11ème (PA_1374) https://live.staticflickr.com/4902/33143883958_66ebd39d9f_m.jpg,https://www.flickr.com/photos/24406544@N00/33143883958
1375,"48.863147, 2.387819",48.863147,2.387819,Paris 20ème (PA_1375) https://live.staticflickr.com/7817/46807520224_2cf8053c73_m.jpg,https://www.flickr.com/photos/24406544@N00/46807520224
1377,"48.895576, 2.327921",48.895576,2.327921,Paris 17ème (PA_1377) https://live.staticflickr.com/65535/48309507791_37931b14d5_m.jpg,https://www.flickr.com/photos/24406544@N00/48309507791
1378,"48.825627, 2.207125",48.825627,2.207125,Hauts-de-Seine (PA_1378) https://live.staticflickr.com/65535/49132158947_34a9b2a3d2_m.jpg,https://www.flickr.com/photos/24406544@N00/49132158947
1379,"48.824313, 2.211974",48.824313,2.211974,Hauts-de-Seine (PA_1379) https://live.staticflickr.com/65535/49128886576_9010533df3_m.jpg,https://www.flickr.com/photos/24406544@N00/49128886576
1380,"48.852460, 2.344690",48.852460,2.344690,Paris 5ème (PA_1380) https://live.staticflickr.com/65535/48479817132_2d832e3726_m.jpg,https://www.flickr.com/photos/24406544@N00/48479817132
1381,"48.863670, 2.424856",48.863670,2.424856,Bagnolet (PA_1381) https://live.staticflickr.com/65535/48363363461_ef6dd5ebc6_m.jpg,https://www.flickr.com/photos/24406544@N00/48363363461
1382,"48.901380, 2.343832",48.901380,2.343832,Saint-Ouen (PA_1382) https://live.staticflickr.com/65535/33901367058_cc65e340f6_m.jpg,https://www.flickr.com/photos/24406544@N00/33901367058
1383,"48.843218, 2.363766",48.843218,2.363766,Paris 5ème (PA_1383) https://live.staticflickr.com/65535/47005755724_24354c0b8a_m.jpg,https://www.flickr.com/photos/24406544@N00/47005755724
1384,"48.841150, 2.352876",48.841150,2.352876,Paris 5ème (PA_1384) https://live.staticflickr.com/65535/40839351893_80a444f5f1_m.jpg,https://www.flickr.com/photos/24406544@N00/40839351893
1385,"48.865561, 2.292956",48.865561,2.292956,Paris 16ème (PA_1385) https://live.staticflickr.com/65535/48371372206_9ae2c18bf5_m.jpg,https://www.flickr.com/photos/24406544@N00/48371372206
1386,"48.827943, 2.275500",48.827943,2.275500,Issy-les-Moulineaux (PA_1386) https://live.staticflickr.com/65535/48451879437_71486247d9_m.jpg,https://www.flickr.com/photos/24406544@N00/48451879437
1387,"48.820131, 2.310916",48.820131,2.310916,Malakoff (PA_1387) https://live.staticflickr.com/65535/48415209737_d25de5a259_m.jpg,https://www.flickr.com/photos/24406544@N00/48415209737
1388,"48.808269, 2.240953",48.808269,2.240953,Meudon-Val-Fleury (PA_1388) https://live.staticflickr.com/65535/49143625856_9b668b561c_m.jpg,https://www.flickr.com/photos/24406544@N00/49143625856
1390,"48.829596, 2.262679",48.829596,2.262679,Issy-les-Moulineaux (PA_1390) https://live.staticflickr.com/65535/48475500801_2c736ec260_m.jpg,https://www.flickr.com/photos/24406544@N00/48475500801
1391,"48.813611, 2.389054",48.813611,2.389054,Ivry-sur-Seine (PA_1391) https://live.staticflickr.com/65535/48629842582_1f616567b5_m.jpg,https://www.flickr.com/photos/24406544@N00/48629842582
1392,"48.871031, 2.349797",48.871031,2.349797,Paris 10ème (PA_1392) https://live.staticflickr.com/65535/48846803587_b8703fce66_m.jpg,https://www.flickr.com/photos/24406544@N00/48846803587
1393,"48.811117, 2.384151",48.811117,2.384151,Val-de-Marne (PA_1393) https://live.staticflickr.com/65535/48621916188_07bc255437_m.jpg,https://www.flickr.com/photos/24406544@N00/48621916188
1394,"48.889030, 2.319445",48.889030,2.319445,Paris 17ème (PA_1394) https://live.staticflickr.com/65535/48328255196_f03500fe91_m.jpg,https://www.flickr.com/photos/24406544@N00/48328255196
1395,"48.864531, 2.346782",48.864531,2.346782,Paris 2ème (PA_1395) https://live.staticflickr.com/65535/48434102301_1ee93e16d8_m.jpg,https://www.flickr.com/photos/24406544@N00/48434102301
1397,"48.869909, 2.319273",48.869909,2.319273,Paris 8ème (PA_1397) https://live.staticflickr.com/65535/48594137056_83e6ca787c_m.jpg,https://www.flickr.com/photos/24406544@N00/48594137056
1398,"48.891181, 2.317836",48.891181,2.317836,Paris 17ème (PA_1398) https://live.staticflickr.com/65535/48297371157_1dcd07b3c7_m.jpg,https://www.flickr.com/photos/24406544@N00/48297371157
1399,"48.893502, 2.333328",48.893502,2.333328,Paris 18ème (PA_1399) https://live.staticflickr.com/65535/48841554646_fa5da48ea9_m.jpg,https://www.flickr.com/photos/24406544@N00/48841554646
1400,"48.816804, 2.364099",48.816804,2.364099,Paris 13ème (PA_1400) https://live.staticflickr.com/65535/48647214592_5c7809e8de_m.jpg,https://www.flickr.com/photos/24406544@N00/48647214592
1402,"48.876309, 2.414706",48.876309,2.414706,Les Lilas (PA_1402) https://live.staticflickr.com/65535/48813760937_2cd32a58e7_m.jpg,https://www.flickr.com/photos/24406544@N00/48813760937
1404,"48.845436, 2.370944",48.845436,2.370944,Paris 12ème (PA_1404) https://live.staticflickr.com/65535/48792450962_5dc5266513_m.jpg,https://www.flickr.com/photos/24406544@N00/48792450962
1406,"48.887026, 2.313662",48.887026,2.313662,Paris 17ème (PA_1406) https://live.staticflickr.com/65535/48949472161_15b316b6a1_m.jpg,https://www.flickr.com/photos/24406544@N00/48949472161
1407,"48.849644, 2.345033",48.849644,2.345033,Paris 5ème (PA_1407) https://live.staticflickr.com/65535/48865088521_66df978b42_m.jpg,https://www.flickr.com/photos/24406544@N00/48865088521
1408,"48.900506, 2.367339",48.900506,2.367339,Paris 18ème (PA_1408) https://live.staticflickr.com/65535/48803591592_34420cd24f_m.jpg,https://www.flickr.com/photos/24406544@N00/48803591592
1409,"48.810396, 2.350473",48.810396,2.350473,Kremlin-Bicêtre (PA_1409) https://live.staticflickr.com/65535/48889960748_20ceba889b_m.jpg,https://www.flickr.com/photos/24406544@N00/48889960748
1410,"48.887555, 2.320303",48.887555,2.320303,Paris 17ème (PA_1410) https://live.staticflickr.com/65535/48959555447_e6203a3626_m.jpg,https://www.flickr.com/photos/24406544@N00/48959555447
1411,"48.858701, 2.275553",48.858701,2.275553,Paris 16ème (PA_1411) https://live.staticflickr.com/65535/48879974901_a289a95d6b_m.jpg,https://www.flickr.com/photos/24406544@N00/48879974901
1412,"48.887957, 2.307085",48.887957,2.307085,Paris 17ème (PA_1412) https://live.staticflickr.com/65535/48966961852_2fe9ff966f_m.jpg,https://www.flickr.com/photos/24406544@N00/48966961852
1413,"48.866295, 2.293471",48.866295,2.293471,Paris 16ème (PA_1413) https://live.staticflickr.com/65535/48884311463_848821815b_m.jpg,https://www.flickr.com/photos/24406544@N00/48884311463
1414,"48.845026, 2.436518",48.845026,2.436518,Vincennes (PA_1414) https://live.staticflickr.com/65535/48861596111_32bcc0b0f6_m.jpg,https://www.flickr.com/photos/24406544@N00/48861596111
1415,"48.818513, 2.383893",48.818513,2.383893,Val-de-Marne (PA_1415) https://live.staticflickr.com/65535/49163423931_fa77467c72_m.jpg,https://www.flickr.com/photos/24406544@N00/49163423931
1416,"48.821424, 2.250137",48.821424,2.250137,Issy-les-Moulineaux (PA_1416) https://live.staticflickr.com/65535/49061398792_6dcb3e8a6c_m.jpg,https://www.flickr.com/photos/24406544@N00/49061398792
1417,"48.842188, 2.359356",48.842188,2.359356,Paris 5ème (PA_1417) https://live.staticflickr.com/65535/48797832126_6d8286401b_m.jpg,https://www.flickr.com/photos/24406544@N00/48797832126
1418,"48.849389, 2.303309",48.849389,2.303309,Avenue de Lowendal (PA_1418) https://live.staticflickr.com/65535/48828404643_bbfffc6b90_m.jpg,https://www.flickr.com/photos/24406544@N00/48828404643
1419,"48.868921, 2.362425",48.868921,2.362425,Paris 10ème (PA_1419) https://live.staticflickr.com/65535/48788007553_45fb78b475_m.jpg,https://www.flickr.com/photos/24406544@N00/48788007553
1420,"48.847187, 2.383679",48.847187,2.383679,Paris 12ème (PA_1420) https://live.staticflickr.com/65535/49033174096_830c4fb4b7_m.jpg,https://www.flickr.com/photos/24406544@N00/49033174096
1421,"48.852700, 2.407293",48.852700,2.407293,Paris 20ème (PA_1421) https://live.staticflickr.com/65535/49050111228_170e2a03ac_m.jpg,https://www.flickr.com/photos/24406544@N00/49050111228
1423,"48.870388, 2.347780",48.870388,2.347780,Paris 2ème (PA_1423) https://live.staticflickr.com/65535/49122265191_30698f7145_m.jpg,https://www.flickr.com/photos/24406544@N00/49122265191
1424,"48.859611, 2.369248",48.859611,2.369248,Paris 11ème (PA_1424) https://live.staticflickr.com/65535/49082816138_f28df203e4_m.jpg,https://www.flickr.com/photos/24406544@N00/49082816138
1425,"48.855955, 2.372038",48.855955,2.372038,Paris 11ème (PA_1425) https://live.staticflickr.com/65535/49089056848_ef99a8baa4_m.jpg,https://www.flickr.com/photos/24406544@N00/49089056848
1426,"48.880133, 2.258387",48.880133,2.258387,Paris 16ème (PA_1426) https://live.staticflickr.com/65535/49154478917_c1b98a4222_m.jpg,https://www.flickr.com/photos/24406544@N00/49154478917
1427,"48.880133, 2.258387",48.880133,2.258387,Paris 16ème (PA_1427) https://live.staticflickr.com/65535/49154519922_993dd66552_m.jpg,https://www.flickr.com/photos/24406544@N00/49154519922
1428,"48.871087, 2.275446",48.871087,2.275446,Paris 16ème (PA_1428) https://live.staticflickr.com/65535/49137808791_767a42347c_m.jpg,https://www.flickr.com/photos/24406544@N00/49137808791
1429,"48.832336, 2.280617",48.832336,2.280617,Paris 15ème (PA_1429) https://live.staticflickr.com/65535/49385383776_ebb0c31c47_m.jpg,https://www.flickr.com/photos/24406544@N00/49385383776
1430,"48.888289, 2.299640",48.888289,2.299640,Paris 17ème (PA_1430) https://live.staticflickr.com/65535/49425254092_e74d4a6559_m.jpg,https://www.flickr.com/photos/24406544@N00/49425254092
1432,"48.859593, 2.351127",48.859593,2.351127,Place Igor Stravinski (PA_1432) https://live.staticflickr.com/65535/50195257707_32959a2873_m.jpg,https://www.flickr.com/photos/24406544@N00/50195257707
1433,"48.840740, 2.352629",48.840740,2.352629,Rue Daubenton (PA_1433) https://live.staticflickr.com/65535/49566483896_d2b52e7af2_m.jpg,https://www.flickr.com/photos/24406544@N00/49566483896
1434,"48.855315, 2.432559",48.855315,2.432559,Montreuil (PA_1434) https://live.staticflickr.com/65535/50200199612_dcb92281c2_m.jpg,https://www.flickr.com/photos/24406544@N00/50200199612
1436,"48.862868, 2.276465",48.862868,2.276465,Paris 16ème (PA_1436) https://live.staticflickr.com/65535/50155686538_24a87af954_m.jpg,https://www.flickr.com/photos/24406544@N00/50155686538
1437,"48.845196, 2.261499",48.845196,2.261499,Paris 16ème (PA_1437) https://live.staticflickr.com/65535/49585657747_17faed7cf4_m.jpg,https://www.flickr.com/photos/24406544@N00/49585657747
1438,"48.887548, 2.318565",48.887548,2.318565,Paris 17ème (PA_1438) https://live.staticflickr.com/65535/49663994762_97ffc7980e_m.jpg,https://www.flickr.com/photos/24406544@N00/49663994762
1439,"48.859007, 2.304285",48.859007,2.304285,Paris 7ème (PA_1439) https://live.staticflickr.com/65535/50219574967_65fd9ed636_m.jpg,https://www.flickr.com/photos/24406544@N00/50219574967
1440,"48.836266, 2.400222",48.836266,2.400222,Paris 12ème (PA_1440) https://live.staticflickr.com/65535/50241494458_914ab502d4_m.jpg,https://www.flickr.com/photos/24406544@N00/50241494458
1441,"48.852167, 2.346632",48.852167,2.346632,Paris 5ème (PA_1441) https://live.staticflickr.com/65535/50171961728_7fe3feee4a_m.jpg,https://www.flickr.com/photos/24406544@N00/50171961728
1442,"48.863207, 2.296453",48.863207,2.296453,Paris 16ème (PA_1442) https://live.staticflickr.com/65535/50149395277_3a39a56f21_m.jpg,https://www.flickr.com/photos/24406544@N00/50149395277
1444,"48.850423, 2.344572",48.850423,2.344572,Paris 5ème (PA_1444) https://live.staticflickr.com/65535/50134552583_82390c2367_m.jpg,https://www.flickr.com/photos/24406544@N00/50134552583
1446,"48.844507, 2.318050",48.844507,2.318050,Falguière (PA_1446) https://live.staticflickr.com/65535/50223501432_5528102587_m.jpg,https://www.flickr.com/photos/24406544@N00/50223501432